Company Name,Website,Phone,Industry,Company Size,HQ,Type,Founded,Location,Latitude,Longitude,Specialities
Credit Suisse,http://www.credit-suisse.com/,,Banking,"10,001+ employees", ,Public Company,1856,"Level 31/1 Macquarie Pl, Sydney NSW 2000, Australia",-33.8618,151.209765,Private Banking & Wealth Management and Investment Banking
RBC,http://www.rbc.com,,Banking,"10,001+ employees", ,Public Company,, ,-34.638899,142.775946,"finance, banking, investing, insurance, financial planning, wealth management, and capital markets"
ANZ,http://www.anz.com,,Banking,"10,001+ employees","Melbourne, Victoria",Public Company,,"833 Collins Street, Docklands, Melbourne, Victoria 3008, AU",-37.821663,144.945748,"Retail Banking, Private Banking, Commercial Banking, Wealth Management, and Institutional Banking"
Rabobank,http://www.rabobank.com,,Banking,"10,001+ employees","Utrecht, Utrecht",Privately Held,, ,-30.516269,151.670489,"Bankieren, Vermogensbeheer, Leasing, Verzekeren, Vastgoed, Advies, Hypotheken, Beleggen, Sparen, Internetbankieren, and Mobielbankieren"
NAB,http://www.nab.com.au,,Banking,"10,001+ employees","Melbourne, Victoria",Public Company,, ,-38.14718,144.361529,Retail & Wholesale Banking and Financial Products and Services
Westpac,http://www.westpac.com.au,,Banking,"10,001+ employees","Sydney, NSW",Public Company,1817,"Head Office: 200 Barangaroo Avenue, Sydney, NSW 2000, AU",-33.868125,151.207973,"banking, financial services, institutional banking, corporate banking, migrant banking, business banking, personal banking, Private Bank, and Agribusiness"
Investec,https://invest.ec/2IR9Xhz,,Banking,"10,001+ employees",,Public Company,1974, , , ,"Banking Services, Financing and Lending, Investing, Advisory Services, Trust, Property Acquisition and Development, Treasury and Trading, Wealth and Investment, and Private Banking"
ING Australia,http://www.ing.com.au,,Banking,"1,001-5,000 employees","Sydney, NSW",Public Company,1999,"60 Margaret St, Sydney, NSW 2000, AU",-33.86477,151.206776, 
Reserve Bank of Australia,http://www.rba.gov.au,,Banking,"1,001-5,000 employees","Sydney, NSW",,,"65 Martin Pl, Sydney, NSW 2000, AU",-33.868177,151.211669,"Monetary Policy, Market Operations, Financial Stability, Payments System, Financial Services, and Banknotes"
ME Bank,http://www.mebank.com.au/careers,,Banking,"1,001-5,000 employees","Melbourne, Victoria",Privately Held,1994,"Level 28, 360 Elizabeth St, Melbourne, Victoria 3000, AU",-37.810952,144.96193,"Banking, Finance, and Lending"
Judo Bank,https://www.judo.bank,13 58 36,Banking,51-200 employees,"Southbank, Victoria",Privately Held,2016, ,-38.382704,142.233177,"Providing finance to Australian businesses, SME Business loans, Business Loans, business banking, Banking, and Business finance"
St.George Bank,http://www.stgeorge.com.au,,Banking,"5,001-10,000 employees","Sydney, NSW",Public Company,1937,"200 Barangaroo Avenue, Sydney, NSW 2000, AU",-33.868633,151.209421,"Home Lending, Business Banking, Personal Banking, and Corporate Banking"
Bendigo and Adelaide Bank,http://www.bendigoadelaide.com.au,,Banking,"5,001-10,000 employees","Bendigo, Vic",Public Company,1858,"The Bendigo Centre, PO Box 480, Bendigo, Vic 3552, AU",-36.75698,144.27957,Retail Banking
Up Banking,https://up.com.au,,Banking,51-200 employees,,Privately Held,2017,"Melbourne,   AU",-37.825071,144.978682,"User Experience, Budgeting, Banking, Fintech, Payments, Spending, and Saving"
Bendigo Bank,https://www.bendigobank.com.au/,,Banking,"1,001-5,000 employees","Bendigo, Victoria",Public Company,1858, ,-37.863179,145.078665, 
Westpac Institutional Bank,http://www.westpac.com.au/corporate-banking,,Banking,"5,001-10,000 employees","Sydney, New South Wales",Public Company,1817,"275 Kent St, Sydney, New South Wales 2000, AU",-33.866037,151.203864, 
Volt Bank,https://www.voltbank.com.au/,272025118,Banking,51-200 employees,"North Sydney, New South Wales",Privately Held,2017,"41 McLaren St, North Sydney, New South Wales 2060, AU",-33.835412,151.208741,"finance, digitalbank, banking, and neobank"
Bank of Melbourne,http://www.bankofmelbourne.com.au,,Banking,"1,001-5,000 employees","Melbourne, Victoria",Public Company,2011,"Locked Bag 20037, Melbourne, Victoria 3000, AU",-37.813046,144.962398,"Personal Banking, Business Banking, Insurance, and Home Lending"
Teachers Mutual Bank Limited,http://www.tmbl.com.au,13 12 21,Banking,"501-1,000 employees","Homebush, NSW",Public Company,1966, ,-33.864107,151.084648,"Transaction accounts, Savings accounts, Home loans, Personal loans, Car loans, Credit cards, Mobile lending, Car insurance, Home insurance, Life insurance, Financial planning, Travel services, Teachers Car Buying service., Banking, and Finance"
Heritage Bank,http://www.heritage.com.au/,,Banking,"501-1,000 employees","Toowoomba, QLD",Privately Held,1875,"400 Ruthven Street, Toowoomba, QLD 4350, AU",-27.564533,151.95552, 
CUA - Credit Union Australia Limited,http://www.cua.com.au,133 282,Banking,"501-1,000 employees","Brisbane, Queensland",Privately Held,1946,"145 Ann St, Brisbane, Queensland  AU",-27.467813,153.024653,Financial Services and banking
UBank,http://www.ubank.com.au,,Banking,201-500 employees,"North Sydney, NSW",Privately Held,2008,"Level 4, 116 Miller Street, North Sydney, NSW 2060, AU",-33.837241,151.206877, 
IMB Bank,http://www.imb.com.au,133 462,Banking,"501-1,000 employees","Wollongong, NSW",Privately Held,1880,"253 Crown Street, Wollongong, NSW 2500, AU",-34.425523,150.892001, 
Bank Australia,http://www.bankaust.com.au,132 888,Banking,201-500 employees,"Kew, Victoria",Privately Held,1957,"222 High Street, Kew, Victoria 3101, AU",-37.80629,145.032694,"Banking, Responsible investment, and General insurance"
BankSA,http://www.banksa.com.au,,Banking,"1,001-5,000 employees","Adelaide, South Australia",Public Company,1848,"97 King William Street, Adelaide, South Australia 5000, AU",-34.925156,138.599049,"Home Lending, Agribusiness, Business banking, and Personal banking"
Bank of Sydney,https://www.banksyd.com.au/,139500,Banking,201-500 employees,"Sydney, New South Wales",Privately Held,2001,"62 Pitt St, Sydney, New South Wales 2000, AU",-33.864551,151.209031,"Relationship Banking, Commercial and Business Banking, Trade Finance, and Construction Finance"
Newcastle Permanent Building Society,http://www.newcastlepermanent.com.au,,Banking,"501-1,000 employees","Newcastle, NSW",Privately Held,1903,"307 King Street, Newcastle, NSW 2302, AU",-32.92869,151.767377,"Personal Banking, Business Solutions, Home Loans, Community, and Financial Planning"
Rabobank Australia,https://www.rabobank.com.au/,,Banking,"1,001-5,000 employees","Sydney, NSW",Public Company,,"201 Sussex Street, Sydney, NSW 2000, AU",-33.872068,151.203425, 
Greater Bank,https://www.greater.com.au,1300 651 400,Banking,"501-1,000 employees","Hamilton, NSW",Privately Held,1945,"103 Tudor Street, Hamilton, NSW 2303, AU",-32.924299,151.746493,"banking, home loans, personal loans, everyday banking, savings accounts, credit cards, mobile banking, online banking, insurance, and travel services"
Beyond Bank Australia,http://www.beyondbank.com.au,,Banking,"501-1,000 employees","Adelaide, South Australia",Privately Held,1958,"100 Waymouth Street, Adelaide, South Australia 5000, AU",-34.925205,138.596254,"Banking, Financial Planning, Financial Services, Superannuation, and Insurance"
Bank of China - Australia,http://www.bankofchina.com/au/en/index.html,,Banking,"501-1,000 employees","Sydney, New South Wales",Privately Held,1942, ,-31.954187,115.854367,"Banking, RMB Clearing, Corporate Financing, RMB Trade Finance, Financial Services, Bank Cards, AUD Clearing, ATM, Syndicated Loans, Trade Finance, Internet Banking, Transaction Banking, Structured Finance, Home Loans, Finance, Personal Banking, and Credit Admin"
Syncordis,http://www.syncordisconsulting.com,,Banking,201-500 employees,,Privately Held,2004, , , ,"T24, Regulatory requirements, Temenos Banking Software Suites implementation and production services, Triple'A Plus, TCIB, Analytics, Retail, Wealth Management, Temenos Infinity Wealth, Temenos Transact, Managed Services, Production Support, Risk and Compliance, Temenos DataSource, SaaS, and BaaS"
Community Sector Banking, ,,Banking,0-1 employees,,Privately Held,,"Melbourne,   AU",-37.825071,144.978682, 
Auswide Bank Ltd,http://www.auswidebank.com.au/,,Banking,201-500 employees,"Bundaberg, Queensland",Public Company,1966,"16-20 Barolin Street, Bundaberg, Queensland 4670, AU",-24.866966,152.350375,"Home Loans, Car & Personal Loans, Personal & Business Banking, Insurance, and Term Deposits"
P&N Bank,http://pnbank.com.au,,Banking,201-500 employees,"Perth, Western Australia",Privately Held,1990,"556 Wellington St, Level 6, Perth, Western Australia 6000, AU",-31.949976,115.855661,"Banking, Personal Lending, Home Lending, Savings Accounts, Transactional Accounts, Credit Cards, Financial Planning, and Insurance"
Australian Payments Network (AusPayNet),https://www.auspaynet.com.au/,61 2 9216 4888,Banking,11-50 employees,"Payments, Regulation, and Australia",Privately Held,1992,"Level 23, Tower 3, International Towers Sydney, 300 Barangaroo Avenue, SYDNEY, NSW 2000, AU",-33.868125,151.207973,"Payments, Regulation, and Australia"
Finance & Banking Society,http://www.anu-finsoc.org/,,Banking,"1,001-5,000 employees","Canberra, ACT",Nonprofit,2010,"Acton, Canberra, ACT 2601, AU",-35.29885,149.127306, 
Azupay,http://www.azupay.com.au,,Banking,11-50 employees,"Woolloomooloo, New South Wales",Privately Held,2019,"98 Bourke St, Woolloomooloo, New South Wales 2011, AU",-33.872529,151.218662, 
IKON Commodities Pty Ltd,http://www.ikoncommodities.com.au,,Banking,2-10 employees,"Sydney, NSW",Privately Held,2011,"Level 3, 75 King Street, Sydney, NSW 2000, AU",-33.868878,151.206372,"Risk Management, Commodity Brokering, Special Project s, Corporate Strategy (agricultural focus), and Agriculture"
Customer Owned Banking Association,http://www.customerownedbanking.asn.au,,Banking,11-50 employees,"Sydney, New South Wales",Public Company,2006,"Level 11, 35 Clarence Street, Sydney, New South Wales 2000, AU",-33.864219,151.204488,"Industry Body, Financial Services, Banking, Customer Owned Banking, and Advocacy"
Police Bank Ltd.,https://www.policebank.com.au/,,Banking,201-500 employees,"Sydney, NSW",Privately Held,1964,"25 Pelican Street, Surry Hills, Sydney, NSW 2010, AU",-33.878765,151.212919,"Transaction Accounts, Savings Accounts, Credit Cards, Personal Loans, Home Loans, Car Loans, Financial Planning, Insurance, Term Deposits, and International Currency Services"
Defence Bank,http://www.defencebank.com.au,,Banking,201-500 employees,"Melbourne, Vic",Privately Held,1975,"Level 5, 31 Queen Street, Melbourne, Vic 3000, AU",-37.818206,144.961876,"Home Loans, Personal and Car Loans, Credit and Debit Cards, Deposit and Investment Accounts, Retirement Saving Account and Superannuation, Motor Vehicle, Home and Contents and Travel Insurance, and Financial Planning"
Suncorp Bank Broker Partnerships,https://businesspartners.suncorp.com.au/,,Banking, ,,,,"Suncorp Place, Brisbane, Qld 4000, AU",-27.463697,153.00979, 
China Construction Bank Corporation Sydney Branch,http://au.ccb.com/sydney/cn/index.html,,Banking,51-200 employees,"Sydney, NSW",Public Company,,"Level 31, 88 Phillip Steet, Sydney, NSW 2000, AU",-33.868633,151.209421, 
Delphi Bank,http://www.delphibank.com.au,1300 660 550,Banking,51-200 employees,"Melbourne, VIC",Public Company,, ,-38.382704,142.233177, 
Australian Military Bank Ltd,http://www.australianmilitarybank.com.au,,Banking,51-200 employees,"Sydney, New South Wales",Privately Held,1959,"45 Clarence St, Sydney, New South Wales 2000, AU",-33.864645,151.204389,"Loans, Savings, Insurance, DHOAS, Personal Loans, Credit Cards, and Defence Community"
Lazarus Capital Partners,https://lazaruscapitalpartners.com/,,Banking,11-50 employees,"Sydney, New South Wales",Privately Held,, ,-37.812137,144.949456,"Prime Brokerage, Bespoke Prime Services, Broker Dealer, Outsourced Trading, Synthetic Prime Brokerage, Cash Prime Brokerage, Corporate Finance, Hedge Fund Support, Capital Introduction, Trade Execution, High Touch Execution, Proprietary Trading, Alpha Generation, Algorithmic Trading, Portfolio Management, Custody Services, Securities Financing, Direct Market Access, Event Driven Trading, Securities Lending, and Asset Management"
Australian Financial Markets Association,http://www.afma.com.au,,Banking,11-50 employees,,Public Company,,"Sydney,  2000, AU",-33.868125,151.207973, 
Adelaide Bank,http://www.adelaidebank.com.au,,Banking,"1,001-5,000 employees",,Public Company,1994, ,-35.128948,139.250755, 
Arab Bank Australia,https://www.arabbank.com.au/,,Banking,51-200 employees,"Sydney, New South Wales",Privately Held,1986,"Level 7, 20 Bridge Street, Sydney, New South Wales 2000, AU",-33.863369,151.208567,"Everyday Banking, Personal Banking, Business Banking, Home Loans, Property, Insurance, Foreign Exchange, Trade Finance, and Asset Finance"
BNK Bank,http://www.bnk.com.au,,Banking,51-200 employees,"Sydney, NSW",Public Company,1982,"Level 24, 52 Martin Place, Sydney, NSW 2000, AU",-33.867242,151.211001, 
QBANK,https://www.qbank.com.au/,,Banking,51-200 employees,"Brisbane, Queensland",Privately Held,1964,"Level 1, 231 North Quay, Brisbane, Queensland 4000, AU",-27.467523,153.018133,"Home Loans, Personal Loans, Credit Cards, Secured Overdrafts, Insurance, Financial Planning, Car Buying, and Savings"
Kelso Finance Mortgage Brokers 0452597126,http://www.kelsofinancebrokers.com.au,452597126,Banking,0-1 employees,"Brisbane, QLD",Privately Held,2020, ,-19.387849,146.716935,"Home Loans, Mortgage Refinancing, Debt Consolidation, Restructuring, Business Finance, Commercial Loans, Development Finance, Equipment & Asset Finance, High Net Worth, Private Banking, Self-Employed, Sydney, Brisbane, Family Offices, Professional Services, Accountants, Lawyers, Business Owners, Entrepreneurs, C-Suite, Medical Professionals, First Home Buyer, Purchases, Simplify Complex Transactions, Renovations, Construction, Personalised Service, Overdrafts, Insurances, Financial Services, Financials Markets, Business Banking, Credit, Structuring, Negotiation, Industry Experience, deal structuring, Property Markets, Strategy, Collaboration, Networking, Confidentiality, and Referrals"
BCU,https://www.bcu.com.au,1300 228 228,Banking,51-200 employees,"Coffs Harbour, NSW",Privately Held,1970, ,-30.297316,153.11675,"Business Banking, Business Loans, Personal Loans, Credit Cards, Home Loans, and Investments"
Australia's digital ethical bank - coming soon.,http://www.ibagroup.com.au,,Banking,11-50 employees,"Auburn, New South Wales",Privately Held,, , , , 
Gateway Bank,https://www.gatewaybank.com.au,1 300 302 474,Banking,51-200 employees,"Sydney, NSW",Public Company,1955,"Level 10, 68 York Street, Sydney, NSW 2000, AU",-33.870398,151.20658,"Home Loans, Personal Loans, Savings, Term Deposits, Car Loans, Insurance, Personal Banking, Online Banking, Phone Banking, and Funeral Funding"
MFB, ,,Banking,"1,001-5,000 employees",,Partnership,,AU, , , 
Community First Credit Union,https://www.communityfirst.com.au,1300132277,Banking,51-200 employees,"Auburn, NSW",Privately Held,1959,"Auburn, NSW 2144, AU",-33.858335,151.037228,"Deposits, Loans, Insurance, Financial Planning, The customer experience, Personal Loans, Green Loans, Home Loans, and Credit Cards"
Unity Bank Limited,http://www.unitybank.com.au,1300 36 2000,Banking,51-200 employees,"Sydney, NSW",Privately Held,1970,"Level 7, 217 Clarence St, Sydney, NSW 2000, AU",-33.870177,151.205226,"Saving Accounts, Home Loans, Personal Loans, Car Loans, Term Deposits, Credit Card, Financial Planning, International Currency Services, Business Banking, Commercial Loans, SMSF Loans, Business Loans, and General Insurance"
G&C Mutual Bank,http://www.gcmutualbank.com.au/,1300364400,Banking,51-200 employees,"Sydney, NSW",Public Company,1959,"Level 25, 201 Elizabeth Street, Sydney, NSW 2000, AU",-33.873805,151.209447,Financial Services and Banking
Avenue,https://www.avenue.net.au,1300 283 265,Banking,11-50 employees,"Sydney CBD, New South Wales",Public Company,2018,"171 Clarence St, Level 8, Sydney CBD, New South Wales 2000, AU",-33.868538,151.205015,"Business Banking, FinTech, Financial Services, and Digital Banking"
Finlease,http://www.finlease.com.au,1800 358 658,Banking,51-200 employees,"North Sydney, NSW",Privately Held,1989, , , ,"Business Finance, Equipment Finance, Machinery Finance, Mortgage Broker, Mortgage Finance, Commercial Property Loans, Finance Broker, Finance Equipment, and Investment Property Finance"
"Industrial and Commercial Bank of China, Sydney",http://www.icbc.com.au,,Banking,11-50 employees,,Public Company,,"2000, AU",-33.868125,151.207973, 
Clarkson Executive,http://www.clarksonexecutive.com.au,,Banking,0-1 employees,"Sydney, NSW",Sole Proprietorship,2014,"PO box R1433, Royal Exchange, Sydney, NSW  AU",-37.139577,142.519224,"Executive Search/ Recruitment, Financial services, Corporations, Sales, Research, and Portfolio Management"
Illawarra Credit Union,http://www.illawarracu.com.au,13 22 49,Banking,51-200 employees,"Wollongong, NSW",Privately Held,1972,"38-40 Young Street, Wollongong, NSW 2500, AU",-34.428377,150.893892,"Financial Services, Home Loans, Personal Loans, Savings and Transaction Accounts, Term Deposits, Insurance, Savings, Banking, and Transaction account"
LANDBANK,http://walandbank.com,,Banking, ,,,, , , , 
BFSLA - Banking & Financial Services Law Association ,http://www.bfsla.org,,Banking,0-1 employees,"Brisbane, Queensland",Nonprofit,1983,"41 Moray Street, New Farm , Unit 3, Brisbane, Queensland 4005, AU",-27.469309,153.026164, 
Summerland Credit Union,http://www.summerland.com.au/,,Banking,51-200 employees,"Northern Rivers, NSW",Public Company,1964,"Northern Rivers, NSW 2480, AU",-28.65123,153.09448,"Home Loans, Business Banking, Car Loans, Personal Loans, Personal Banking, Insurance, Financial Planning, Credit Cards, Community, Sustainability, and Travel funds"
Bendigo Debtor Finance,http://www.bendigodebtorfinance.com.au,,Banking,"1,001-5,000 employees","Docklands, Victoria",Public Company,, ,-36.754373,144.325405,"Debtor Finance, Factoring, Invoice Finance, Business cash flow management, and Invoice Discounting"
Police Credit Union, ,,Banking,51-200 employees,,Privately Held,,AU, , , 
DayTek Capital,http://www.daytekcapital.com.au,423425362,Banking,2-10 employees,"Gold Coast, Qld",Privately Held,2019,"Gold Coast, Qld 4226, AU",-28.017366,153.42725, 
Teachers Mutual Bank,http://www.tmbank.com.au,,Banking, ,,,, ,-33.864107,151.084648, 
Goldfields Money Limited,http://goldfieldsmoney.com.au,,Banking,11-50 employees,"East Perth, WA",Public Company,1982, ,-37.078532,143.73655,"Home loans, Personal Loans, Savings Accounts, Term Deposits, and SMSF Loans"
Endeavour Mutual Bank,https://endeavour.bank/,,Banking,51-200 employees,"Surry Hills, NSW",Privately Held,1953,"59 Buckingham Street, Surry Hills, NSW 2010, AU",-33.888483,151.207004,"Exceptional Customer Service, Home Loans, Personal Loans & Credit Cards, Everyday Banking, Financial Planning Services, Insurance, Online Services, Term Deposits, and Community Engagement"
gmcu.,http://gmcu.com.au,,Banking,51-200 employees,"Shepparton, VIC",Privately Held,1955,"91 Fryers Street, Shepparton, VIC 3630, AU",-36.379102,145.401893,Banking Services and Loans
LoanDolphin,http://www.loandolphin.com.au,,Banking,2-10 employees,"Sydney, NSW",Privately Held,2015,"11 York Street, Level 5, Sydney, NSW 2000, AU",-33.865394,151.205402, 
Health Professionals Bank,https://www.hpbank.com.au,,Banking, ,,,, ,-37.807462,144.954272, 
Pinewood Community Financial Services Limited,https://www.bendigobank.com.au/public/community/our-branches/pinewood,(03) 9887 6477,Banking,2-10 employees,"Mount Waverley, Victoria",Public Company,2002,"65 Centreway, Mount Waverley, Victoria 3149, AU",-37.890979,145.143963,"loans, banking, finance, advice, insurance, term deposits, sponsorship, donations, business banking, home loans, student loans, small business banknig, accounts, saving accounts, customer service, eftpos, and grants"
Community Bank Clifton Hill - North Fitzroy,https://www.facebook.com/ClifroyBank,,Banking,11-50 employees,"Clifton Hill, VIC",Privately Held,2006,"101 Queens Parade, Clifton Hill, VIC 3068, AU",-37.789568,144.989451,"banking, insurance, great customer service, home loans, sponsorship, building better communities, community bank, grants program, community banking, and personal loans"
Yinsheng bank supplies group Ltd,http://www.yinshengco.com/en/index.jsp,,Banking,51-200 employees,,Privately Held,1989, ,-38.382704,142.233177,bank products supplier and Financial equipment supplier
Queenslanders Credit Union,http://www.queenslanders.com.au,,Banking,51-200 employees,"Brisbane, QLD",Nonprofit,1963,"144 Edward Street, Brisbane, QLD 4000, AU",-27.469862,153.027994,"Experienced Banking Professionals, Friendly, and Helpful"
Peppermint Innovation Limited,http://www.pepltd.com.au/,,Banking,11-50 employees,,Public Company,2016,"Perth,   AU",-31.960773,115.834088,"Mobile Banking Applications, International Remittance, Domestic Remittance, eWallet, and Custom Payment Gateways"
UniBank,https://www.unibank.com.au/,,Banking, ,,,, ,-32.066701,115.835516, 
Sydney Mutual Bank,http://www.sydneymutual.bank,,Banking,51-200 employees,"Surry Hills, New South Wales",Sole Proprietorship,1963,"59 Buckingham St, Surry Hills, New South Wales 2010, AU",-33.888483,151.207004,"Home loans, Car loans, Personal loans, Savings accounts, Term deposits, Credit cards, Financial Planning, Insurance, Business banking, and Travel products"
Paychain Ventures,https://paychain.ventures,,Banking,2-10 employees,,Privately Held,2015, ,-34.395644,150.858628,"Merchant Payments, Loyalty Program, Mobile Payment App, and Consumer to Consumer Payment System"
"Private Banking Services, Bendigo Bank",http://bendigoprivate.com.au,,Banking,11-50 employees,"Melbourne, VIC",Privately Held,1992,"Level 7, 34 Queen Street, Melbourne, VIC 3000, AU",-37.818016,144.96237,"Consumer and Business Loans, Overdrafts/working capital, Credit Cards, Development Finance, Term Deposits, Treasury Deposits, Cash Management Accounts, Savings Accounts, Equipment Finance, Financial Planning, Insurance, Superannuation, and Margin Lending"
Greenhill Caliburn,http://www.greenhillcaliburn.com,,Banking,201-500 employees,,Public Company,,"2000, AU",-33.868125,151.207973, 
JDH Financial Group,http://www.jdhfinancialgroup.com.au,488348827,Banking,2-10 employees,"Melbourne, Victoria",Privately Held,2019,"1 Queens Rd, Suite 1236, Melbourne, Victoria 3004, AU", , ,"broker, finance, home loan, and home loans"
Macquarie Bank Ltd, ,,Banking, ,,,1983, ,-42.886038,147.326428, 
Nexus Mutual,http://www.nexusmutual.com.au,,Banking,11-50 employees,"Docklands, Victoria",Privately Held,1969,"664 Collins St, Docklands, Victoria 3008, AU",-37.817089,144.952945,"Banking, Financial Services, and Community"
Global GRC Alliance Ltd,https://www.globalgrcalliance.com/,,Banking,2-10 employees,,Privately Held,,"Sydney,   AU",-33.868633,151.209421,"Governance, Risk , Compliance, and Transformation"
enteruptors,http://enteruptors.com,,Banking,2-10 employees,"Lindfield, NSW",Privately Held,2015, , , , 
The Capricornian,https://www.capricornian.com.au/,1300314900,Banking,11-50 employees,"Rockhampton, QLD",Public Company,1959, ,-33.59118,150.961,"Personal Loans, Home Loans, Access Accounts, Savings Accounts, Term Deposits, Business Banking, Insurance, Financial Planning, Cash Passports, International Money Transfers, and Investment Loans"
Westpac Banking Group, ,,Banking,"10,001+ employees",,,1817, ,-33.864496,151.202281, 
Mortgage Domayne,http://www.mortgagedomayne.com.au,,Banking,11-50 employees,"Craigieburn, Vic",Privately Held,2015,"Shop B00-04 Craigieburn Central, 340 Craigieburn Rd, Craigieburn, Vic 3064, AU",-37.55699,144.918335, 
HiveEx.com,http://www.HiveEx.com,,Banking,2-10 employees,"Melbourne, VIC",Privately Held,2018,"Melbourne, VIC  AU",-37.825071,144.978682,"Cryptocurrency, Trading, OTC, Financial Services, and Bitcoin"
KADRE,https://www.kadre.com.au,,Banking,2-10 employees,"Melbourne, Victoria",Privately Held,,"Melbourne, Victoria 3000, AU",-37.813046,144.962398, 
FDATA A&NZ,http://www.fdata.global,,Banking,2-10 employees,"Sydney, NSW",Nonprofit,, , , , 
LCU,http://www.lcu.com.au,,Banking,11-50 employees,"North Ryde, NSW",Public Company,1954,"Shop 1 ""The Village""​, 3 Julius Avenue, North Ryde, NSW 2113, AU",-33.797152,151.142598,"Home Loans, Car Loans, Refinancing, North Ryde, Banking, Business Banking, and Financial help, planner, savings, investment"
Savings & Loans Credit Union, ,,Banking,"501-1,000 employees",,Privately Held,,AU, , , 
Gallantree,https://www.gallantree.com.au,,Banking,2-10 employees,"Brisbane, Queensland",Privately Held,2020, , , ,Digital Banking and Private Banking
WAW Credit Union,http://www.wawcu.com.au,,Banking,51-200 employees,"Wodonga, Victoria",Public Company,1956,"11 Stanley Street, Wodonga, Victoria 3690, AU",-36.122487,146.886674,"Customer Owned Banking, Home Loans, Community Support, Transaction & Savings Accounts, Insurance, and Investments"
Iridium Private Pty Ltd,https://iridiumprivate.com.au/,,Banking,2-10 employees,"Melbourne, Victoria",Privately Held,2017,"287 Collins St, Melbourne, Victoria 3071, AU",-37.816222,144.964532,"banking, private banking, business banking, property funding, financing, and funding"
Horizon Bank - Australia,https://www.horizonbank.com.au,1300 366 565,Banking,51-200 employees,"Wollongong, NSW",Nonprofit,1964, ,-27.55572,152.922972, 
YCU,http://ycu.com.au,,Banking,11-50 employees,"Brisbane, Queensland",Nonprofit,1967,"Sarina Russo River Centre, 100 Eagle Street, Brisbane, Queensland 4000, AU",-27.466532,153.029921,"Discount home/investment loans, High yielding Netsaver on-line savings account, Personal and Car Loans, High interest rate Term Deposits, Quick and easy loan approvals, and Fast and simple loan settlements"
Comind,http://-,,Banking,"1,001-5,000 employees",,Privately Held,, , , , 
PO TRADE,http://pocapital.com.au,61282774316,Banking,2-10 employees,"North Sydney, New South Wales",Privately Held,2020, ,-37.561181,143.859811, 
NCX ,https://www.ncx.com.au,,Banking,2-10 employees,"Subiaco, WA",Privately Held,2017,"First Floor 292 Rokeby Road , Subiaco, WA 6008, AU",-31.953145,115.824215, 
Finance@work Pty Ltd,http://www.financeatwork.com.au,,Banking,11-50 employees,"Kingsgrove, NSW",Privately Held,,"2C, Lvl 2, 322 Kingsgrove Rd, Kingsgrove, NSW 2208, AU",-33.943855,151.102107, 
Women in Credit Risk - Australia,http://womenincreditrisk.com,,Banking,2-10 employees,"Melbourne, Victoria",Nonprofit,2018,"140 William St, Melbourne, Victoria 3000, AU",-37.81595,144.958598,"credit risk, banking and finance, Analytics, CCR, Gender diversity, Managment, Mentorship, and Networking"
Intech Credit Union,http://www.intechcu.com.au,,Banking,11-50 employees,"St Leonards, NSW",Public Company,1962, ,-33.797418,151.142756,"Home & Personal Loans, Savings & Investments, Insurance, Foreign Exchange, Financial Planning, and Wealth Soloutions"
INET External Support ( Forex World Pty Ltd - Australia ),http://www.forexworld.com.au,,Banking,51-200 employees,"Sydney, PRESTONS, NSW",Privately Held,,"Unit 6, 332 Hoxton Park Road, Sydney, PRESTONS, NSW 2170, AU",-33.928891,150.884482, 
Orange Credit Union,http://orangecu.com.au,263624466,Banking,11-50 employees,"Orange, New South Wales",Nonprofit,1964,"288 Summer St, Orange, New South Wales 2800, AU",-33.284371,149.102592,"Home Loans, Car Loans, Personal Loans, Deposits, Insurance, and Foreign Exchange"
Curtin Wall Street Club,https://www.curtinwsc.com/,,Banking,2-10 employees,"Perth, WA",Self-Employed,2012,"Kent Street, Bentely, Perth, WA 6102, AU",-31.960773,115.834088,"Finacial Services, Consulting, Investment Banking, and Careers"
Firefighters Mutual Bank,https://www.fmbank.com.au,,Banking, ,,,, ,-32.715549,151.52694, 
Instant Pay,https://instantpay.net.au,755454513,Banking,2-10 employees,"Brisbane, Queensland",Privately Held,2020,"Brisbane, Queensland  AU", , , 
Archer Private,https://archerprivate.com/,430276874,Banking,2-10 employees,"Prahran, Victoria",Privately Held,2019,"39-40 Porter St, Prahran, Victoria 3181, AU",-37.854771,145.006676,"No Pre-Sales construction Finance, Landbank Funding, Mezzanine Funding, Residual Development Stock Loans, WORKING CAPITAL , SUBDIVISION FUNDING, REFINANCE , URGENT SETTLEMENT , and ATO DEBT"
ZENRG Finance Pty Ltd,http://www.zenrgfinance.com.au,,Banking,2-10 employees,"Sydney, New South Wales",Privately Held,,"58 Victoria Road, North Parramatta, Sydney, New South Wales 2151, AU",-33.808858,151.009776,"Home Loans, Commercial Loans, Banking Solutions, and Insurances"
Open Analytics,https://www.epsilon-0.com.au/,,Banking,2-10 employees,"Sydney, NSW",Public Company,,"Sydney, NSW 2000, AU",-33.901541,151.198098, 
Sipora,https://sipora.com.au,,Banking,2-10 employees,"Sydney, New South Wales",Privately Held,2018,"Darlinghurst Rd, Sydney, New South Wales  AU",-33.868633,151.209421, 
"Precinct, a Prosegur initiative", ,,Banking,11-50 employees,,Privately Held,,"Sydney,   AU",-33.868633,151.209421, 
Dandenong Ranges Community BankGroup,https://www.bendigobank.com.au/upwey,397541200,Banking,11-50 employees,"Upwey, Vic",Public Company,1998, , , ,"Home Loans, Business Loans, Wealth Strategies, Retirement Strategies, Investment Loans, and Student Banking"
Resimac Asset Finance,https://theiagroup.com.au,,Banking,11-50 employees,"Sydney, NSW",Public Company,,"Level 3, 28 O'Connell St, Suite 303, Sydney, NSW 2000, AU",-33.865708,151.209279, 
Tradies Finance,http://www.tradiesfinance.com.au,1300 556 840,Banking,2-10 employees,"Moorabbin, Victoria",Privately Held,2004,"614 South Rd, Moorabbin, Victoria 3189, AU",-37.937232,145.065368,"Finance for Tradespeople, Finance for Self Employed, Finance for SME, Home loans, Leasing, Business loans, Cash-flow finance, Construction loans, Investment loans, Equipment Finance, Vehicle Finance, and Insurance"
Affiliate Finance & Property,http://www.affili8.com.au/,,Banking,2-10 employees,"Carlton, VIC",Privately Held,2012,"115 Drummond Street, Carlton, VIC 3053, AU",-37.803958,144.967617,"Finance Broking, Property Investing Strategies, Finance Structures, and Lending to SMSF's"
Behaviour,http://www.behaviour.ai,,Banking,2-10 employees,"Sydney, NSW",Privately Held,2017,"Suite 504, 37 Bligh St, Sydney, NSW 2000, AU",-33.8659,151.209637, 
eMatters Payment Gateway,http://www.eMatters.com.au,,Banking,51-200 employees,"Melbourne, VIC",Privately Held,1999, , , ,Internet Payment Solutions
SCU-,http://sydneycu.com.au,,Banking, ,"MASCOT, New South Wales",,, ,-33.871954,151.205805, 
Premium Broker Pty Limited,http://www.PremiumBroker.com.au,,Banking,2-10 employees,"Willoughby, NSW",Privately Held,2002,"549 Willoughby Rd, Willoughby, NSW 2068, AU",-33.806422,151.199646,"Home Loans, Insurance, Leasing, Wealth, Conveyancing, Self Managed Super Funds, Property Investment, and Full MFAA Member"
Unimoni Exchange LLC,http://unimoni.com,,Banking, ,,,,"Level 4/1 Wentworth St, Parramatta,  2150, AU",-33.819631,151.005054, 
Intech Bank,http://www.intechbank.com.au,,Banking,11-50 employees,"Sydney, NSW",Privately Held,1962, ,-38.382704,142.233177,"Retail Banking, Term Deposits, and Home Loans"
ZARA RETAIL LIMITED,http://www.zara.com/in/,,Banking,11-50 employees,,,, ,-28.3163,153.2585, 
Suncorp Bank,http://suncorpbank.com.au,,Banking, ,"Nsw, Victoria",,, ,-24.866117,152.349547, 
Ladbroke Financial Services Pty Ltd,http://www.carsandfinancedirect.com.au,,Banking,11-50 employees,"Underwood, Queensland",Public Company,1996,"3/126 Compton Road, Underwood, Queensland 4119, AU",-27.609606,153.111292,Car Finance - Car Loan
BANK INSTRUMENTS,http://tradefinanceindia.com,9212155400,Banking,2-10 employees,,Self-Employed,1983, ,-38.148291,144.365201,Banking Instruments
Attain Loan & Mortgage Services,http://www.attainloans.com.au,(03) 9069 6141,Banking,2-10 employees,"South Yarra, VICTORIA",Privately Held,2019,"Suite 209, 9-11 Claremont Street, 209, South Yarra, VICTORIA 3141, AU",-37.840187,144.993274,"Personal Loans, Home Loans, Investment Loans, Vehicle Finance, Mortgages, and Customer Service"
Rethink Financing,http://www.rethinkfinancing.com.au,,Banking,2-10 employees,"Bondi Junction, NSW",Privately Held,2017,"Tower 2, Level 22, 101 Grafton Street, Bondi Junction, NSW 2022, AU",-33.895884,151.249252,"Home Loans, Personal Loans, and Asset Finance"
Traditional Credit Union (TCU),http://tcu.com.au,,Banking,51-200 employees,,Privately Held,1994,"9 Rowling Street, Casuarina, NT 0810, AU",-12.374397,130.881577, 
LLL Australia (Lutheran Laypeople’s League),https://www.lll.org.au,1800 556 457,Banking,11-50 employees,"North Adelaide, South Australia",Nonprofit,1921,"175 Archer St, North Adelaide, South Australia 5006, AU",-34.908191,138.594739,Saving accounts and Charitable
UTS Banking & Finance Society, ,,Banking,11-50 employees,"Sydney, NSW",Nonprofit,,"UTS, Building 8, 14/28 Ultimo Rd, Ultimo , Sydney, NSW 2007, AU",-33.868633,151.209421, 
Commercial Lending Excellence (CLE),http://www.clefinance.com.au,03 9989 2233,Banking,2-10 employees,"Glen Iris, Victoria",Privately Held,2019,"1430 Malvern Rd, Glen Iris, Victoria 3146, AU",-37.853627,145.04396, 
Creditline Pty Ltd T/AS CREDITLINE AUSTRALIA,http://www.creditline.com.au,398359700,Banking,2-10 employees,"CAMBERWELL, VIC",Privately Held,1979,"First Floor 1100 Toorak Road, CAMBERWELL, VIC 3124, AU",-37.840615,145.073681,"Equipment Finance, Car Finance, Plant Finance, Commerical Hire Purchase, Leasing, Rental, Business Finance, Professional Finance, Finance for Tradies, software finance, IT finance, and Chattel Mortgage"
Banana Coast Credit Union,http://www.bcu.com.au/,,Banking, ,"MACLEAN, NSW",,,"231 River St, MACLEAN, NSW 2463, AU",-29.456669,153.197139, 
Loan Base,http://loanbase.com.au,,Banking,2-10 employees,"Surry Hills, NSW",Privately Held,2016,"Suite 510, 46-56 Kippax Street, Surry Hills, NSW 2010, AU",-33.884622,151.20976,"Home Loans, Commercial Loans, Asset Finance, Car Finance, Business Loans, Construction Loans, SMSF Loans, Lo-Doc Loans, and Credit Impaired Loans"
WARWICK CREDIT UNION LTD,http://www.wcu.com.au,1300 724 433,Banking,11-50 employees,"Warwick, QLD",Public Company,1970, ,-28.214843,152.033016, 
LoanCloser Technologies,http://www.loancloser.com.au,,Banking,11-50 employees,"Frankston, VIC",Privately Held,2004,"Suite 6 Level 1, 108 Young Street, Frankston, VIC 3199, AU",-38.144483,145.124249, 
Prefect Agencies,http://www.prefectagencies.com.au,,Banking,11-50 employees,"Archerfield, Queensland",Public Company,1988,"Stockwell Pl, Archerfield, Queensland 4108, AU",-27.566371,153.019547,"Coin & Note Clearance Systems, Industrial scales and labelling applications, Process control systems, Cash handling equipment, Automated Payment Solutions, and Note Counters"
First Option Bank Australia,https://firstoptionbank.com.au/,1800 362 265,Banking,11-50 employees,"Melbourne, Victoria",Public Company,1965,"Head Office - 6/437 St Kilda Road, Melbourne, Victoria 3004, AU",-37.839204,144.977074, 
IBA Group,http://www.ibagroup.com.au,,Banking,11-50 employees,"Sydney, NSW",Privately Held,2012,"6 - 8 Auburn Road, Auburn, 6 - 8 Auburn Road., Sydney, NSW 2144, AU", , ,finance and Islamic Finance
Loanmarket Epping,https://www.loanmarket.com.au/sam-lucci,,Banking,2-10 employees,"Epping, VIC",Self-Employed,,"10/66 Willandra Dr, Epping, VIC 3076, AU",-37.644632,145.010276, 
Select Personnel,http://www.selectpersonnel.com.au,,Banking,2-10 employees,,Privately Held,, ,-37.985053,145.212854, 
Capital One Funds Management Pty Ltd, ,,Banking, ,,,,"Sydney,   AU",-33.868633,151.209421, 
South West Slopes Credit Union Limited,https://www.swscu.com.au,,Banking,11-50 employees,"Young, NSW",Public Company,, ,-33.797418,151.142756, 
SHAKE Finance,http://www.shakefinance.com.au,,Banking,2-10 employees,"Adelaide, SA",Sole Proprietorship,2015,"Adelaide, SA 5000, AU",-34.929036,138.600473,"Home Loans, Asset Finance, Investment Property, and Commercial Lending"
Factfin,http://factfin.com,,Banking,2-10 employees,"SYDNEY, NSW",Privately Held,2016,"Level 4, 11 York Street, SYDNEY, NSW 2000, AU",-33.865394,151.205402, 
Emergence Financial Group,http://emergencefg.com,421372934,Banking,2-10 employees,,Privately Held,,"Shop 1/58 Moore St, Footscray,  3011, AU",-37.798553,144.90345, 
Finance and Mortgage Broker,http://www.linkedin.com,,Banking,0-1 employees,,Privately Held,,AU, , , 
Bank of Heritage Isle,https://www.heritageisle.com.au,,Banking,11-50 employees,,Privately Held,,"69 St John Street, Launceston, Tasmania 7250, AU",-41.436581,147.138597, 
Auscoin,https://auscoin.io/,,Banking,2-10 employees,"Melbourne, Vic",Sole Proprietorship,2017,"1071 Doncaster Rd, Melbourne, Vic 3108, AU",-37.825071,144.978682, 
Local Government Finance Authority of South Australia (LGFA),http://www.lgfa.com.au/,,Banking,2-10 employees,"Adelaide, South Australia",,1984,"147 Pirie St, Suite 1205, Adelaide, South Australia 5000, AU", , , 
Central West Credit Union,https://www.cwcu.com.au,,Banking,11-50 employees,"Parkes, New South Wales",,,"269 Clarinda St, Parkes, New South Wales 2870, AU",-33.134861,148.174741,"Home Loans, Car Loans, Personal Loans, Savings Accounts, Term Deposits, Mobile Banking, Financial Planning, and Insurance"
TTO Finance & Mortgage Broking,tel:0882119426,,Banking,2-10 employees,"ADELAIDE, SA",Privately Held,2020,"234 Sturt St, ADELAIDE, SA 5000, AU",-34.933062,138.589924, 
Maleny Credit Union,http://www.mcu.com.au,,Banking,11-50 employees,"Maleny, Queensland",Nonprofit,1984,"28 Maple Street, Maleny, Queensland 4552, AU",-26.758083,152.851725, 
AMP Credit Union, ,,Banking,11-50 employees,,Public Company,, ,-33.797418,151.142756, 
BestExchangeRates.com,http://bestexchangerates.com,,Banking,2-10 employees,,Privately Held,2009,"Sydney,   AU",-33.868633,151.209421,"foreign exchange, currency rate comparison, international money transfers, and travel money"
Asia Pacific Capital Limited,http://www.apcl.net.au,,Banking,51-200 employees,"Melbourne, Victoria",Public Company,2018,"459 Collins St, Level 6 South Tower, Melbourne, Victoria 3000, AU", , , 
CAPE Credit Union,http://www.capecu.com.au/,,Banking,11-50 employees,"Sydney, New South Wales",Public Company,1968, ,-33.797418,151.142756,"Transactional banking and Payment Services, Savings and Investment Accounts, Home Loans, investment Loans, Personal Loans, Financial Planning, Travel and Insurance Services, Online Banking, Telephone Banking, Apple Pay, Android Pay, and Personal Banking"
WALL STREET FINANCIAL SERVICES PTY LTD, ,,Banking,11-50 employees,"Bundall, Queensland",,, , , , 
Telstra Credit Union,http://www.telstracu.com.au,,Banking,11-50 employees,"Sydney, NSW",Public Company,1962, ,-33.797418,151.142756,"Home & Personal Loans, Savings & Investments, Insurance, Financial Planning, Foreign Exchange, and Wealth Solutions"
Responsive Lending,https://responsivelending.com.au,,Banking,2-10 employees,"BUNDOORA, Victoria",Privately Held,2016,"7 SCHOLAR DRIVE, BUNDOORA, Victoria 3083, AU",-37.68524,145.072417,"Personal Finance, Car Loans, Home Loans, and Personal Loans"
WAVETRONICS PTY LTD,http://www.wavetronics.com.au/,,Banking,2-10 employees,"RIVERWOOD, NSW",,, ,-38.094211,144.368721, 
Oula.la,http://oula.la,,Banking,2-10 employees,,Privately Held,2016, , , ,"Payments, Buy Now Pay Later, Installment Payments, Gig Economy, Sharing Economy, Banking, Neobanking, and Paid As You Earn"
Coolalinga & Districts Community Finance Limited,https://www.bendigobank.com.au/branch/nt/coolalinga-districts-community-bank-branch/,08 89834111,Banking,2-10 employees,"Coolalinga, Northern Territory",Public Company,2006,"460 Stuart Hwy, Shop 18 Coolalinga Shopping Centre, Coolalinga, Northern Territory 0839, AU",-19.488357,133.438712, 
Windsor Community Bank Branch of Bendigo Bank,https://bit.ly/Apply_Windsor_Grants,,Banking,2-10 employees,"Windsor, Vic",Privately Held,2000,"111 Chapel Street, Windsor, Vic 3181, AU", , ,"community banking, banking, insurance, customer service, home loans, sponsorship, building better communities, community bank, grants program, and personal loans"
Finteon,http://www.finteon.com,+61 (03) 9900 6426,Banking,11-50 employees,"Melbourne, Vic",Privately Held,2018,"Level 30, 35 Collins Street, Melbourne, Vic 3000, AU",-37.81464,144.972027,"Banking as a Service, Consumption Based Pricing, Community Banks, and Mutual Corporations (Banks)"
COMMONWEALTH BANK OF AUSTRAL, ,,Banking,"10,001+ employees",,,1911, ,-38.382704,142.233177, 
Bit-e - Changing the future of Digital Banking,http://www.bit-e.com.au,,Banking,11-50 employees,"Melbourne, Victoria",Public Company,2017,"Bourke St, Melbourne, Victoria 3000, AU",-37.825071,144.978682,"Banking, Payments, Home Loans, Foreign Exchange, Transactions, Retail Banking, and Business Banking"
Barber & Bunton, ,,Banking,11-50 employees,,Privately Held,,AU, , , 
Fulham Finance,http://fulhamfinance.com.au/,0414 710 251,Banking,2-10 employees,,Privately Held,,"3/290 Blackburn Rd, Doncaster East,  3109, AU",-37.781441,145.16375, 
Penny Finance ,http://www.pennyfinance.com.au,459595999,Banking,2-10 employees,"South Melbourne, Victoria",Self-Employed,2020,"1/190 Coventry St, South Melbourne, Victoria 3205, AU",-37.830663,144.963562,"Home Loans, Finance, Mortgages, Debt Reduction, Debt Consolidation, Refinance, First Home Buyers, Investors, Empowering Women, Financial Independence, Saving Money, Home Buying, Car Finance, and Asset Finance"
Swan Hill Credit Union,http://www.swanhillcu.com.au,,Banking,11-50 employees,"Swan Hill, Victoria",Nonprofit,1963,"42 McCallum Street, P.O Box 1740, Swan Hill, Victoria 3585, AU",-35.338438,143.558528,"Personal banking, Home Loans, VISA debit card, Personal loans, Business banking, Insurance, Financial planning, and Term deposit"
eQuant Consulting,http://www.e-quant.com.au,,Banking,2-10 employees,,Privately Held,,"2065, AU",-33.826167,151.194377, 
Ichthys LNG Pty Ltd.,http://www.inpex.com.au/our-projects/ichthys-lng-project/,,Banking,2-10 employees,,,, , , , 
ATM Serve, ,,Banking,0-1 employees,"MARRICKVILLE, NSW",Public Company,,"9 Rich Street, MARRICKVILLE, NSW 2204, AU",-33.905071,151.164155,"Electronic Banking Solutions, Largest range of ATMs in Australia, In-house technical expertise, 99% up-time maintenance record, and Comprehensive sales, servicing & support"
AxiTrader Forex Trading, ,,Banking, ,,,, , , , 
Agriculture Bank of China,http://au.abchina.com,,Banking, ,,,, ,-38.382704,142.233177, 
bizfundr,http://www.bizfundr.com.au,433306609,Banking,2-10 employees,"Burleigh Heads, Queensland",Privately Held,2019,"11/7 Ramly Dr, Burleigh Heads, Queensland 4220, AU",-28.10332,153.433536, 
Self Managed Super Funding Pty Ltd, ,,Banking,2-10 employees,"MELBOURNE, VIC",Privately Held,, , , , 
Ritz Finance,http://www.ritzfinance.com.au,,Banking,2-10 employees,"Subiaco, WA",Self-Employed,2009,"254 Rokeby Road, Subiaco, WA 6008, AU",-31.952128,115.824295,"Banking, Finance, Corporate Finance, Commercial banking, Ritz Management, Investments, Business analysis, Management Consulting, Credit Analysis, Financial Modeling, and Corporate Advisory"
EXP Financial Group,http://www.expfinancialgroup.com.au/,,Banking,2-10 employees,"Melbourne, VIC",Public Company,2013,"247-255 Drummond Street, Melbourne, VIC 3053, AU",-37.825071,144.978682, 
Platinum Insight,http://www.platinuminsight.com.au/,,Banking,11-50 employees,"Southgate, VictoriA",Privately Held,2005,"Level 3, IBM Tower, 60 City Road, Southgate, VictoriA 3006, AU",-37.014348,143.480452, 
PORT LINCOLN ABORIGINAL HEALTH SERVICE INC,http://www.plahs.org.au/,,Banking,11-50 employees,"Port Lincoln, South Australia",,, ,-34.726578,135.852824, 
Annette Tothill Finance,http://tothillfinance.com.au,420973551,Banking,2-10 employees,,Sole Proprietorship,2011,"180 Binney Rd, Willunga,  5172, AU",-35.249582,138.57236, 
Home Equities,https://www.homeequities.com.au/,,Banking,2-10 employees,"Sydney, NSW",Partnership,2015,"9 Formosa, Drummoyne, Sydney, NSW 4207, AU",-33.854895,151.156966, 
MLS Finance,http://mlsfinance.com.au,02 9635 1888,Banking,11-50 employees,,Privately Held,2017,"Suite 3, Level 2/460 Church St, Parramatta,  2150, AU",-33.814115,151.005457,"Mortgage, Loans, Real Estate, Property, Investment, Property Investment, Home Loans, Finance, Wealth, Retirement, Banking, Refinancing, Business Finance, Debt, Retire, Financial Freedom, Vehicles, Mortgage Broker, Brokerage, Money, Consolidation, Strategy, Commercial Property, investing, First home buyer, family, Super, SMSF, Superannuation, refinance, and property development"
RK Mine Finance,http://www.rkminefinance.com/,,Banking,2-10 employees,,,, ,-28.08428,117.5195, 
Nicheliving Home Loans,http://www.nichelivinghomeloans.com.au,,Banking,11-50 employees,"Perth, wa",Public Company,2015,"1/137 Newcastle street, Perth, wa 6000, AU",-31.947407,115.86269,"Home Loans, Mortgages, and Finance"
Molonglo Financial Services Limited,https://www.bendigobank.com.au/curtin,,Banking,11-50 employees,"Curtin, ACT",Public Company,2002, , , ,"Home Loans, Personal Loans, Insurance, Credit Cards, Everyday Accounts, Term Deposits, Investment Accounts, Financial Planning, Superannuation, Business Banking, Equipment Finance, Foreign Exchange, Community, and Socially Responsible"
PayThat,http://www.paythat.com.au,,Banking,11-50 employees,"West Pennant Hills, New South Wales",Privately Held,2017,"18 Star Cres, Suite 1, West Pennant Hills, New South Wales 2125, AU",-33.735771,151.056721, 
Blockchain Capital Markets Group,http://www.bcmg.io,,Banking,11-50 employees,"Brisbane City, Queensland",Privately Held,2018,"155 Queen St, Brisbane City, Queensland 4000, AU",-27.469556,153.025893, 
ZM Financial,http://www.zmfinancial.com.au,,Banking,2-10 employees,,Self-Employed,,"Brisbane,   AU",-27.469309,153.026164, 
Lysaght Credit Union,http://lysaghtcu.com.au,,Banking,11-50 employees,"Wollongong, New South Wales",Nonprofit, ,"13 Auburn St, Wollongong, New South Wales 2500, AU",-34.427375,150.889757, 
Zimba Financial Services,http://www.zimbafinancialservices.com,,Banking,2-10 employees,"Melbourne, Victoria",Public Company,2016,"PO BOX 296, Pascoe Vale South, Melbourne, Victoria 3044, AU",-37.825071,144.978682,"Standard variable & fixed rate loans, Investment Loans, First Home Buyers, Commercial Loans, Construction Loans, Asett Finance, and Insurance"
Aussie Loans,http://aussieloans.com.au,,Banking, ,"Queensland, Queensland",,, ,-27.415138,153.050796, 
Aion Pacific ,http://www.aionpacific.com,(02) 8020 5859,Banking,2-10 employees,"SYDNEY, NSW",Privately Held,2018,"Level 9, 60 Pitt Street, SYDNEY, NSW 2000, AU",-33.864414,151.209066,Banking and Finance
The Futurus Group,http://futurus.com.au/,,Banking,51-200 employees,"North Sydney, NSW",Privately Held,1989, ,-38.483093,142.967851,"Mortgage Broking, Mortgage Broking Training, and Credit Licensing"
Mega International Commercial Bank Co. Ltd. (Sydney Branch), ,,Banking, ,"Sydney, New South Wales",,1997, , , , 
ConnXsyn,tel:0430 015 260,,Banking,2-10 employees,"Collingwood, Victoria",Privately Held,2017,"23 Gipps St, Suite 205, Collingwood, Victoria 3066, AU",-37.80477,144.988174, 
Beyond Payment Systems Pty Ltd,https://beyondpaymentsystems.com.au/,,Banking,2-10 employees,"Brisbane, QLD",Privately Held,2014,"Level 4 , 11 Finchley Street , Milton, Brisbane, QLD 4064, AU", , ,Merchant Banking and Payment Processing Fee Specialist
Fintech Hub,http://fintechhub_au,,Banking,11-50 employees,"Sydeny, NSW",Privately Held,2017,"155 Clarence Street, Sydeny, NSW 2000, AU",-33.868039,151.204832, 
CurrencySpot,http://currencyspot.com.au,,Banking,2-10 employees,"Sydney, New South Wales",Public Company,2015,"50 Bridge Street, Level 2 - Stone and Chalk, Sydney, New South Wales 2000, AU",-33.862788,151.211517,"Currency, foreign exchange, Software, and Payments"
SMEBank in a Box,http://smebank.technology,,Banking,2-10 employees,"Sydney, NSW",Privately Held,,"Level 13 / 28 O'Connell Street, PayNow Office, Sydney, NSW 2000, AU",-33.865708,151.209279, 
Treadstone 71 Private Equity,http://www.treadstone71.com.au,,Banking,0-1 employees,"Toowong, QLD",Partnership,2010,"52A Jephson St, Toowong, QLD 4066, AU",-27.48444,152.99098, 
Australian Loan House,http://www.australianloanhouse.com.au,,Banking,2-10 employees,,Privately Held,2015,"Sydney,   AU",-33.868633,151.209421,"Residential Lending, Personal Loans, Debt Consolidation, Investment & Construction Loans, First Home Buyers, Low Doc Loans, Non-conforming Lending, and Insurances"
Smartline Mortgage Advisers,http://www.mortgageforce.com.au/michaelr,,Banking,0-1 employees,,Self-Employed,,"6023, AU",-31.832909,115.775898, 
Akuna,https://www.akuna.money/,,Banking,2-10 employees,"Sydney, NSW",Privately Held,2016,"608 Harris St, Ultimo, Sydney, NSW 2007, AU",-33.88043,151.200358, 
Sunraysia Home Loans,http://www.sunraysiahomeloans.com.au,,Banking,2-10 employees,"Mildura, Vic",Sole Proprietorship,2016,"128 Lime Avenue, Mildura, Vic 3500, AU",-34.186646,142.156871,"Mortgage Lending, Home Loans, Vehicle Finance, and Construction Loans"
Flycke,http://www.flycke.com,,Banking,2-10 employees,,Privately Held,2009,"2009, AU",-33.86901,151.19353,"billing, bill payment, payment processing, ecommerce, internet banking, bpay, billing, merchant, and online payment"
Suncorp-Metway Limited,http://suncorpmetway.com,,Banking, ,"Brisbane, Queensland",,, ,-27.422105,153.034055, 
BDCU,http://bdcu.com.au,,Banking, ,"Bowral, New South Wales",,, ,-34.482383,150.416958, 
Cash Train,http://cashtrain.com.au,,Banking, ,,,, ,-38.148979,144.359098, 
Tradecentrix, ,,Banking, ,,,,AU, , , 
ULTRAPHARM LIMITED, ,,Banking, ,,,, ,-34.60154,144.812997, 
AquireFX,https://aquirefx.com,,Banking,2-10 employees,"Sydney, NSW",Privately Held,2017,"Level 13, 99 York Street, Sydney, NSW 2000, AU",-33.870154,151.205802,"foreign exchange, Money transfers, Fintech, Finance, Currency exchange, P2P, peer-to-peer, technology, tech, startup, and FX"
Crypto Madness,https://www.facebook.com/cryptomadnessorg/,,Banking,0-1 employees,"Brisbane, QLD",Sole Proprietorship,,"Brisbane, Brisbane, QLD 4000, AU", , , 
Central Mortgage Broker,https://www.centralmortgagebroker.com.au,03 9717 5993,Banking,2-10 employees,"Doreen, Victoria",Privately Held,2007,"101 Hazel Glen Dr, Doreen, Victoria 3754, AU",-37.587096,145.126177,"Mortgage Lending, Commercial Lending, Investment Lending, SMSF Lending, Car Finance, Equipment Finance, Refinancing, and Mortgage Mentoring"
RI Group China,http://www.rigroupltd.com,,Banking,51-200 employees,,Privately Held,, ,-35.19296,138.48172, 
SmallStash,http://www.smallstash.com.au,,Banking,2-10 employees,"Millers Point, NSW",Educational Institution,2017,"Bond store 3, 30 Windmill Street, Millers Point, NSW 2000, AU",-33.868125,151.207973,Financial literacy and Banking education
Risk Consultants Australia,http://www.riskconsultantsaustralia.com.au,,Banking,2-10 employees,,Privately Held,,"2000, AU",-33.868125,151.207973, 
Rams Home Loans, ,,Banking, ,"Sydney, New South Wales",,, ,-37.850544,145.095412, 
Associated Kiln Driers Pty Ltd,http://www.akd.com.au/,,Banking,2-10 employees,"City of Colac, Victoria",,, ,-33.912298,151.103278, 
LoanX Pty Ltd,http://www.loanx.com.au,,Banking,11-50 employees,,Privately Held,, ,-38.094211,144.368721, 
BOQ Broker,http://boq.com.au/broker,,Banking,"5,001-10,000 employees","Brisbane, QLD",Public Company,,"Brisbane, QLD 4001, AU",-27.469309,153.026164, 
On Point Finance,http://www.onpointfinance.com.au,,Banking,2-10 employees,,,2015,AU, , ,"lending, property purchases, loan review, loan restructure, refinance, and strategy"
Trader Cobb,http://tradercobb.com,,Banking,2-10 employees,"Sydney, NSW",Self-Employed,2017,"Sydney, Australia, Sydney, NSW 2010, AU",-33.88258,151.214917, 
Organic Home Loans,http://organichomeloans.com.au,1300103330,Banking,11-50 employees,,Self-Employed,2019,"Shop 1/66 Blaxland Rd, Ryde,  2112, AU",-33.814553,151.106639, 
uBroker Finance Group,http://www.ubroker.com.au,,Banking,11-50 employees,"Melbourne, Victoria",,,"480 Collins St, Melbourne, Victoria 3000, AU",-37.817754,144.957976,"Home Loan, Investment Loan, Construction Loan, Commercial Loan, Development Loan, SMSF Loan, Accredited Broker Mentorship, Broker Training, Business Advisory and Planning, Property Management, and Property Buyer Agent"
Circle,https://getcircle.com.au,,Banking,"10,001+ employees","Surry Hills, NSW",Privately Held,2017,"52 Reservoir Street, Surry Hills, NSW 2010, AU",-33.881015,151.209524, 
Loan Market - Julia Hebb,https://www.loanmarket.com.au/julia-hebb,,Banking,2-10 employees,"Pearcedale, Victoria",Privately Held,2016,"Smiths Ln, Pearcedale, Victoria 3912, AU",-38.201358,145.23453,"Residential Mortgages, Investment Mortgages, Commercial Loans, Insurance, Refinancing, and First Home Buyers"
Loan Market - Benjamin Dennis,http://Www.loanmarket.com.au/benjamin-dennis,,Banking,2-10 employees,"Warragul, Victoria",Privately Held,,"5 Napier St, Warragul, Victoria 3820, AU",-38.161717,145.929111,"Home Loans, Vehicle Finance, and Insurance"
Sprout Finance Co. ,http://sproutfinanceco.com.au,412471415,Banking,2-10 employees,"Melbourne, Victoria",Self-Employed,,"Melbourne, Victoria 3000, AU",-37.813046,144.962398, 
Carrum Downs Financial Services Ltd,http://www.bbl.com.au,,Banking,2-10 employees,,Public Company,,AU, , , 
Abraham Finance,http://abrahamfinance.com.au,(02) 6156 36 65,Banking,2-10 employees,,Sole Proprietorship,2018,"2/55-57 Lathlain St, Belconnen,  2617, AU",-35.239956,149.0634,"Home Financing, Mortgage Broker, Finance Specialist, Refinancing, Lending Specialist, New Home Buyers, and Property Investors"
Indirect Debit,http://www.indirectdebit.com.au,,Banking,2-10 employees,,Privately Held,,"Melbourne,   AU",-37.825071,144.978682, 
Platinum Package Home Loans,http://www.pphl.com.au,448336662,Banking,2-10 employees,"Wantirna South, VIC",Privately Held,2013,"16 Piccadilly Ave, Wantirna South, VIC 3152, AU",-37.864512,145.240274, 
Auto Link Finance Pty Ltd,https://www.autolinkfinance.com.au/,,Banking,2-10 employees,"Hoppers Crossing, VIC",Public Company,2010,"3/4 kilmarnock Court, Hoppers Crossing, VIC 3029, AU",-37.874653,144.726095, 
"E.Sun Commercial Bank, Ltd. (Sydney Branch)", ,,Banking, ,"Sydney, New South Wales",,2015, ,-28.035773,151.982878, 
Q-Risk Strategies,http://blog.q-riskstrat.com,,Banking,2-10 employees,,Privately Held,2010,"Melbourne,   AU",-37.825071,144.978682,"Risk Management, Derivatives, Credit Risk, Quantitative Models, Statistical Modelling, Qualitative and Quantitative Reviews, Basel Models, Stress Testing, Retail Scoring, and PD, LGD, EAD"
G20 Solutions,http://www.g20solutions.com.au/,,Banking,2-10 employees,"Melbourne, Victoria",Sole Proprietorship,2015,"G68 / 601 Lt. Collins Steet, Melbourne, Victoria 3000, AU",-37.825071,144.978682, 
FinanceJobs.io,https://financejobs.io,,Banking,2-10 employees,"Melbourne, Victoria",Privately Held,2019,"Melbourne, Victoria 3000, AU", , , 
Mortgagebiz,http://www.mortgagebiz.com.au/,,Banking,201-500 employees,"Baulkham Hills, NSW",Privately Held,, , , , 
Somethin' Sweet,https://www.instagram.com,,Banking,2-10 employees,"Sydney, Bondi",Public Company,2020,"Sydney, Bondi 2026, AU",-33.89463,151.26748, 
JP Loans,http://www.jploans.com.au/,,Banking,2-10 employees,"Brisbane, Queensland",Public Company,2011,"lvl 2 129 Robinson St, Fortitude Valley, Brisbane, Queensland 4006, AU",-27.458535,153.035375, 
moneyhive,http://www.moneyhive.com.au,420571577,Banking,2-10 employees,"Centennial Park, New South Wales",Privately Held,2017,"53 Moore Park Rd, Centennial Park, New South Wales 2021, AU",-33.890215,151.230747, 
Select Credit Union Limited,http://www.selectcu.com.au,,Banking,11-50 employees,"Sydney Olympic Park, New South Wales",,, ,-33.951711,151.016411, 
Genesisbank,http://genesisbank.io,,Banking,2-10 employees,"Melbourne, Victoria",Privately Held,2018,"101 Collins St, Melbourne, Victoria 3000, AU", , , 
mCD IP Corporation,http://www.mcd-exchange.com,,Banking,2-10 employees,"Melbourne, Victoria",Privately Held,2015, ,-27.62343,152.76067, 
Swapo Money, ,,Banking,2-10 employees,"Sydney, NSW",Partnership,2016, , , , 
Highett Community Financial Services Limited,https://www.bendigobank.com.au/branch/vic/highett-community-bank-branch/,,Banking,2-10 employees,"Highett, VIC",Public Company,,"322-324 Highett Rd, Highett, VIC 3190, AU",-37.949089,145.043479, 
Casade Home Loans Pty Ltd,http://www.cascadehomeloans.com.au,,Banking,2-10 employees,,Privately Held,,"3190, AU",-37.950386,145.03979, 
Ormond-McKinnon Bendigo Community Bank® ,http://www.bendigobank.com.au/public/community/our-branches/ormond-mckinnon,,Banking,2-10 employees,"Ormond, Victoria",Public Company,2010,"485 North Road, Ormond, Victoria 3204, AU",-37.903666,145.039941,"Mortgages, Small Business lending, Personal Lending, Deposits, and All personal and business transaction banking"
Ferntree Gully/ Rowville Community Bank Branch of Bendigo Bank,https://kcbg.com.au/,(03) 9756 0332,Banking,11-50 employees,"Ferntree Gully, Victoria",Public Company,2000,"67 Station St, Ferntree Gully, Victoria 3156, AU",-37.883598,145.295241, 
Mortgage  Choice Wembley,https://www.mortgagechoice.com.au/mark.wilkins/,08 9287 1030,Banking,2-10 employees,"Wembley, Western Australia",Privately Held,,"361b Cambridge St, Wembley, Western Australia 6014, AU",-31.94113,115.80959, 
Reliance Mortgage Services ,http://www.reliancemortgageservices.com.au/,,Banking,2-10 employees,"Gungahlin, Australian Capital Territory",Privately Held,2015,"P O Box 863, Gungahlin, Australian Capital Territory 2912, AU",-35.187546,149.134957,"Gungahlin, Australian Capital Territory"
Open Mobile Payments Pty Ltd,http://openmobilepayments.com,,Banking,0-1 employees,,Privately Held,,"Sydney,  2073, AU",-33.868633,151.209421,"Payments, Technology, Mobile, and Software"
Central Murray Credit Union,http://cmcu.com.au,,Banking, ,"Cobram, Victoria",,, ,-35.920262,145.647534, 
OPTIMAL MORTGAGE SOLUTIONS,http://www.optimalmortgagesolutions.com.au,,Banking,2-10 employees,"Hinchinbrook, NSW",Self-Employed,2013,"Keppel Circuit, Hinchinbrook, NSW 2168, AU",-33.918154,150.862888, 
Creative Home Loans,http://www.chl.com.au,,Banking,2-10 employees,,Privately Held,,"2155, AU",-33.694307,150.939165, 
Money For Jam, ,,Banking,0-1 employees,,Privately Held,, ,-37.812918,144.963123, 
Creative Loans,http://www.creativeloan.com.au,289647700,Banking,2-10 employees,"Sydney, NSW",Privately Held,2019,"Sydney, NSW  AU",-33.868633,151.209421, 
Nightcliff Community Enterprises,http://www.enjoy-darwin.com/nightcliff-bank.html,,Banking,2-10 employees,,Privately Held,,"0810, AU",-12.369786,130.876643, 
Canterbury Surrey Hills Community Finance Ltd,http://www.supportingourcommunity.com.au,,Banking,11-50 employees,"Canterbury, Victoria",Public Company,2003,"Shop 2, 143 Maling Rd, Canterbury, Victoria 3126, AU",-37.824373,145.082392,Banking and Community Banking
MR LOAN FINANCE GROUP PTY LTD,http://WWW.MRLOANMORTGAGE.COM.AU,,Banking,2-10 employees,,Privately Held,2015,"Sydney,   AU",-33.868633,151.209421, 
Cairns Bank,http://cairnsbank.com.au,,Banking, ,,,, ,-17.348368,145.715907, 
CNC4 Corp,http://www.cnc4corp.com,,Banking,"501-1,000 employees",,Public Company,,"1st main street, Sydney,   AU",-33.868633,151.209421, 
Opal Finance,http://www.opalfinance.com.au/,,Banking,11-50 employees,"Thornlie, Western Australia",Privately Held,,"Unit 4/320 Spencer Road, Thornlie, Thornlie, Western Australia 6108, AU",-32.056806,115.962879,"Construction Loans, Low deposit home loans, Fixed Rate Home Loans, Investment Home Loans, Debt Consolidation Home Loans, Personal Loans, Car Loans and Equipment Financing, Business Loans, Equity Loans and Line of Credit facilities, and Low Doc Home Loans"
North Orange County Credit Union,http://www.noccreditunion.org,,Banking,11-50 employees,"Sunnybank, QLD",,, ,-33.284354,149.102598, 
Hawkesbury Community Financial Services,http://www.hcfs.net.au,,Banking,2-10 employees,"North Richmond, NSW",Public Company,2002,"Shop 7-8, 36 Riverview Street, North Richmond, NSW 2758, AU",-33.571382,150.720445, 
Crunch Finance,https://crunchfinancebrokers.com.au/,02 6694 1422,Banking,2-10 employees,"Bangalow, New South Wales",Privately Held,2018,"94 Byron St, Bangalow, New South Wales 2479, AU",-28.686082,153.527767, 
Fremantle Community Financial Services ,http://www.bendigobank.com.au,,Banking, ,"Fremantle, WA",Privately Held,,"Fremantle Community Bank, 9 Adelaide Street, Fremantle, WA 6160 , AU",-32.03333,115.75, 
Bradfield Advisors,http://www.bradfieldadvisors.com.au,,Banking,2-10 employees,"Sydney, NSW",Privately Held,,"Level 36, Governor Phillip Tower, 1 Farrer Place, Sydney, NSW 2000, AU",-33.864279,151.211341,"property finance, banking tenders, property development, transactional banking, and cash management"
CS Sales & Services,http://www.csss.com.au,,Banking,2-10 employees,"Newington, NSW",Privately Held,2009,"Newington Business Park, Newington, NSW 2127, AU",-38.044375,145.247814, 
Sarina & District Community Financial Services Limited ,https://www.bendigobank.com.au/branch/qld/sarina-community-bank-branch/,4943 2634,Banking,2-10 employees,"Sarina, Queensland",Public Company,2005,"37 Broad St, Sarina, Queensland 4737, AU",-21.423366,149.217002, 
Capital Therapy Services,http://capitaltherapyservices.com.au,,Banking, ,"Phillip, Australian Capital Territory",,, ,-41.04149,145.877445,"Phillip, Australian Capital Territory"
EncoreFX Inc,http://encorefx.com.au,,Banking, ,,,, ,-33.811405,151.201809, 
Talent Home Loans,http://www.talenthomeloans.com.au,,Banking,2-10 employees,"Sydney, NSW",Public Company,2015,"Level 20, Tower A, The Zenith, 821 Pacific Highway, Chatswood NSW 2067, Sydney, NSW 2067, AU",-33.794772,151.179406, 
First Choice Loanss Pty. Ltd.,http://www.firstchoiceloanss.com.au,,Banking,2-10 employees,"Dandenong, VIC",Privately Held,2013,"15-23 Langhorne Street, Dandenong Hub Arcade, Dandenong, VIC 3175, AU",-38.020442,145.221637,"Home Loans, Personal Loans, Commercial Loans, and Car Loans"
Bank Leumi Le-Israel B.M., ,,Banking, ,"Melbourne, Victoria",,, , , , 
Intro Finance,http://introfinance.com.au,409163418,Banking,2-10 employees,,Public Company,,"38A Main St, Mornington,  3931, AU",-38.217588,145.037485, 
Victoria Point Community Bank Branch Of Bendigo Bank,https://www.bendigobank.com.au/branch/qld/victoria-point-community-bank-branch/,(07) 3820 9355,Banking,11-50 employees,"Victoria Point, Qld",Privately Held,2005,"127 Colburn Avenue , Shop 5, Victoria Point, Qld 4165, AU",-27.586087,153.307709,"Community banking, banking, insurance, customer service, home loans, sponsorship, community, grants, and personal loans"
GARBELLINI LIMITED, ,,Banking,2-10 employees,,,, ,-34.60154,144.812997, 
Mortgage Connex,http://www.mortgageconnex.com.au,,Banking,2-10 employees,,Privately Held,2015,"Sydney,   AU",-33.868633,151.209421,"Home Loans, Insurance, Property Investment, Tax Advice, SMSF Borrowing, and Conveyancing"
Macquarie Sterling,http://macquariesterling.com.au,,Banking, ,,,,"Suite 24/456 St Kilda Rd, Melbourne,  3004, AU",-37.839678,144.976319, 
"The Bank of Tokyo-Mitsubishi UFJ, Ltd., Sydney Branch", ,,Banking, ,"Sydney, New South Wales",,1957, ,-33.907714,151.185134, 
Cool Country Community Enterprises Ltd,https://www.bendigobank.com.au/branch/vic/trentham-districts-community-bank-branch/,354241608,Banking,2-10 employees,"Trentham, Victoria",Public Company,2011,"37b High St, Trentham, Victoria 3458, AU",-37.388985,144.322299, 
E1 Money,http://e1money.com.au,,Banking,2-10 employees,"Melbourne, Victoria",Privately Held,2015,"Level 13, 256 Queen Street, Melbourne, Victoria 3000, AU",-37.81252,144.95984, 
WINDSOR STATE SCHOOL,https://windsorss.eq.edu.au/Pages/default.aspx,,Banking,2-10 employees,"Windsor, Queensland",,, , , , 
Beauty and Nails,http://beautyandnails.com.au,,Banking, ,,,, ,-37.788543,144.931533, 
Pearl Business and Mortgage Finance Pty Ltd,http://www.pearlbmf.com.au,409726105,Banking,2-10 employees,"Melbourne, Victoria",Privately Held,2008,"Melbourne, Victoria 3000, AU",-37.813046,144.962398, 
House of Lending,http://www.houseoflending.com.au,0422 708 369,Banking,2-10 employees,"RANDWICK, NSW",Privately Held,,"75 Belmore Road, RANDWICK, NSW 2031, AU",-33.911304,151.242096, 
Australian Mortgage Managers PL,http://mortgagemanager.smartonline.com.au,1300 799 266,Banking,2-10 employees,,Privately Held,1993,"Melbourne,   AU",-37.825071,144.978682,"home loans, investor loans, self employed loans, commercial loans, leasing, cash flows loans and unsecured cash flow loans"
BankSA - A Division of Westpac Banking Corporation, ,,Banking, ,"Adelaide, South Australia", ,1848, , , , 
Harrison Finance 恒业信贷｜墨尔本贷款｜房贷｜贷款,http://harrisonfinance.com.au,,Banking, ,, ,, ,-35.200088,149.156499, 
Admiral Home Loans,http://www.admiralhomeloans.com.au,,Banking,2-10 employees,,Privately Held,2006,"4022, AU",-27.211336,153.054355, 
AusLend Financial Services,https://www.auslend.com.au/,03 9112 5712,Banking,2-10 employees,"Carlton, Victoria",Privately Held,,"139 Cardigan St, Suite 49, Carlton, Victoria 3053, AU",-37.803401,144.964697, 
Bright Community Bank® Branch of Bendigo Bank,https://www.bendigobank.com.au/community/our-branches/bright,(03) 5755 1932,Banking,2-10 employees,"Bright, Victoria",Public Company,2006,"104 Gavan St, Shop 2, Bright, Victoria 3741, AU",-36.726876,146.961842,"Personal Banking, Business Banking, Agribusiness, and Financial Planning"
Credit History Repairs,http://www.credithistoryrepairs.com.au,,Banking,2-10 employees,,Privately Held,,"2304, AU",-32.873502,151.739677, 
MGRF Pty Ltd,http://a,,Banking,2-10 employees,,Privately Held,, ,-38.094211,144.368721, 
FlexiPIN,http://www.flexipin.com.au/,,Banking,0-1 employees,,Self-Employed,, , , , 
Strategic Minerals Corp NL (FWY),http://www.stratmin.com.au,,Banking, ,"Subiaco, WA",,, , , , 
PFG Forex,http://pfgforex.com.au,,Banking, ,,,, ,-37.768014,144.92454, 
Buckets Of Money,http://www.bucketsofmoney.com.au,,Banking,2-10 employees,"Greensborough, VICTORIA",Sole Proprietorship,,"Level 1,, 2 Main Street,, Greensborough, VICTORIA 3088, AU", , , 
The Cashflow Catalyst Pty Ltd,http://www.cashflow-catalyst.com/,,Banking,0-1 employees,"Sydney, NSW",Privately Held,2014,"174 - 182 Goulburn Street, Surry Hills, Sydney, NSW  AU",-33.878925,151.212783,"Foreign Exchange and Hedging, Cash Management, Business Risk Consulting, Receivables Finance, Trade Credit Insurance, and Trade Finance Sourcing"
Main Range Capital, ,,Banking,2-10 employees,,Privately Held,, , , ,Property Finance
Tayrex Exchange,http://tayrexchange.com.au,,Banking, ,,,,"31/363 Mirrabei Dr, Moncrieff,  2914, AU",-35.15388,149.114604, 
Risk Management Worldwide - Proservartner Australia,http://www.proservartner.com.au,,Banking,2-10 employees,"Melbourne, Vic",Privately Held,2013, , , ,"Enterprise Risk and Regulatory Compliance, Operational Risk, Fraud Analysis, Process Improvement, Risk Identification, control and Mitigation, Regulatory Reporting, Business Analysis, Controls Assurance & Testing, Framework Development, Total Quality Management, Lean Six Sigma, HR Resourcing, Implementation support & Monitoring, Shared services, Business Excellence and Re-engineering, Technology Services, Web Development, Graphic desigining, and Video Animation"
Alderson Financial Services Pty Ltd,http://aldersonfs.com.au,,Banking,0-1 employees,,Privately Held,2013,AU, , , 
Total Home Loan Solutions,http://www.totalhomeloansolutions,,Banking,2-10 employees,"Adelaide , South Australia",Partnership,2020,"Adelaide , South Australia 5000, AU",-34.929036,138.600473, 
SHB Lending,http://shblending.com.au,427046902,Banking,0-1 employees,,Privately Held,2014,"78 Henna St, Warrnambool,  3280, AU",-38.378113,142.47889,"Home Loans, Business Loans, Asset Finance, and Cash Flow Lending"
Everyone Finance,http://everyonefinance.com.au,,Banking, ,,,, , , , 
GFX Bank, ,,Banking,201-500 employees,,Privately Held,2017, ,-38.382704,142.233177,"Banking, Trading, and Investments"
Ty Sam & Associates,http://tysamaccountants.com.au,,Banking, ,,,, ,-37.801316,144.901096, 
Intellect Finance Mortgage Broker,http://intellectfinance.com.au,,Banking, ,,,, , , , 
Universal Virtual Group Pty Ltd, ,,Banking,11-50 employees,"Maroochydore, Queensland",Public Company,, ,-37.803922,144.966197,"Banking, Energy & resources, Financial advisory services, Commodities, Mining, and Investment structure"
AUSTRUST,http://austrust.com.au,,Banking,2-10 employees,"Brisbane, QLD",Privately Held,2012,"Level 14, Emirates House, 167 Eagle Street, Brisbane, QLD 4001, AU", , ,"Escrow Services, Commercial Rental Bond Holding, Holding Account, and Project Payment Management"
Your Mortgage Pty Ltd, ,,Banking,0-1 employees,,Privately Held,, , , , 
Easylink Finance Australia Pty Ltd,http://easylinkfinance.com.au,,Banking, ,,,, ,-34.829177,138.672623, 
Dickson & Co Financial Solutions,http://dicksonandco.com.au,,Banking, ,,,, ,-35.252117,149.139742, 
finder.com.au, ,,Banking,51-200 employees,"Sydney, New South Wales",,2006, , , , 
Julide Turker Naturopathy, ,,Banking, ,"Lalor, Victoria",,, , , , 
Flemington Community Bank,http://www.bendigobank.com.au/public/community/our-branches/flemington,,Banking,2-10 employees,"Flemington, VIC",Public Company,2003,"325-327 Racecourse Road, Flemington, VIC 3031, AU",-37.787464,144.912779,"Mortgages, Business banking, Children's and Students' accounts, Insurance, and Investment advice"
Community Bank Wantirna,https://www.bendigobank.com.au/branch/vic/community-bank-wantirna/,(03) 9720 4122,Banking,2-10 employees,"Wantirna, VIC",Public Company,,"Shop 5-6 Wantirna Mall, Wantirna, VIC 3152, AU",-37.852469,145.225968, 
Capital Access,http://www.ca.finance,+61 3 6228 9996,Banking,2-10 employees,,Privately Held,2011,"Melbourne,   AU",-37.825071,144.978682, 
SegmentOne Consulting,http://www.segmentone.com.au,,Banking,0-1 employees,,Sole Proprietorship,2019,"Melbourne,   AU",-37.825071,144.978682, 
Credit Card Payment Processing with Dynamic Routing,http://www.ecconnect.com.au/credit-card-processing,,Banking, ,,,,"6 Booran Drive, 1, Slacks Creek, Qld 4127, AU",-27.641925,153.128042, 
Credit Cards Australia, ,,Banking, ,"Docklands, Victoria",,, ,-17.75092,145.59933, 
Fair Loans Financial health Foundation Ltd.,http://fairloans.com.au,,Banking,2-10 employees,,Nonprofit,,"2000, AU",-33.868125,151.207973, 
Flawless Financial Services,http://flawlessfinance.com.au,,Banking, ,,,, ,-38.14938,144.357135, 
ComDirect - Private Commercial Mortgages,http://www.comdirect.com.au,412831100,Banking,2-10 employees,"Sydney, New South Wales",Privately Held,2017,"Sydney, New South Wales 2000, AU",-33.868125,151.207973, 
MoneyQuest - Wollongong,http://moneyquestwollongong.com.au,,Banking, ,,,, , , , 
Orbit Banking,https://www.orbitbanking.com.au,,Banking,2-10 employees,"Ultimo, NSW",Privately Held,2020,"622 Harris Street, Ultimo, NSW 2007, AU",-33.880918,151.200757, 
The Mess Hall,http://themesshallmelbourne.com,,Banking, ,"Melbourne, Victoria",,, ,-37.811926,144.971771, 
Pledge Home Loans,http://www.pledge.loans,1300 877 811,Banking,2-10 employees,"Murrumbeena, Victoria",Privately Held,2018,"19/981 North Rd, Murrumbeena, Victoria 3163, AU",-37.907212,145.06813,"Home Loans, Asset Finance, Car Loans, Investment Loans, Reverse Mortgage, Construction Loans, SMSF Loans, Medico Loans, Non Conforming Loans, Boat Loans, Motorbike Loans, Caravan Loans, and First Home Buyer Loans"
AWA Credit Union,http://awaalliancebank.com.au,,Banking, ,"Portland, Victoria",,, ,-33.797418,151.142756, 
Mt Evelyn & Districts Financial Services Ltd,http://medfsl.com.au/,(03) 9737 1833,Banking,2-10 employees,"Mt Evelyn, Victoria",Public Company,2002,"35-39 Wray Crescent, Mt Evelyn, Victoria 3796, AU", , ,"home loans, business loans, business banking,  credit cards, insurance, term deposits, insurance, superannuation, and savings account"
ROBERT LANE AUTOMOBILES PTY LTD, ,,Banking,2-10 employees,"Brighton, Victoria",,, ,-27.56583,153.05738, 
Vault Plus Mortgages,http://vaultplusmortgages.com.au,,Banking,2-10 employees,"Sutherland, NSW",Privately Held,2010,"43/10-18 Robertson Street, Sutherland, NSW 2232, AU",-34.030783,151.056521,"Investment Property Finance, Home Loans, Comprehensive Property Research, Finance Consultancy, and First Time Investor Consultancy"
Allstate Home Loans,http://www.allstatehomeloans.com.au/,1800 101 368,Banking,11-50 employees,"Brisbane City, Queensland",Privately Held,,"120 Edward St, Brisbane City, Queensland 4000, AU",-27.470266,153.028414, 
Barclays Bank PLC (Australian Branch), ,,Banking, ,"Sydney, New South Wales",,, ,-23.992438,134.050443, 
Arete Finance ,https://www.aretefinance.com.au,,Banking,2-10 employees,"Bulimba, QLD",Privately Held,,"Waterside Crescent , Bulimba, QLD 4171, AU",-27.450627,153.057679, 
Alpha Medical Clinic,http://alphamedical.com.au,,Banking, ,"Mill Park, Victoria",,, , , , 
Bond Hub,http://www.bondhub.com.au,,Banking, ,,,,"Level 46 Rialto South, 525 Collins Street Melbourne, Melbourne, Victoria 3000, AU",-37.825071,144.978682, 
Secta Finance Pty Ltd,http://sectafinance.com.au,,Banking,0-1 employees,"Carbrook , Qld",Privately Held,,"Stern Rd, Carbrook , Qld 4130, AU",-27.68333,153.25,"Commercial Lending & Asset Finance, Residential Home Lending, Trade & Debtor Finance, Property Development, Facility Negotiations, Corporate Finance, Banking Solutions, and Restructuring"
Your Mortgage Co,http://www.yourmortgageco.com.au,871300294,Banking,2-10 employees,"Norwood, South Australia",Privately Held,2018,"38 Donegal St, Norwood, South Australia 5067, AU",-34.929953,138.621386,"Finance, Mortgage Broking, Commercial Finance, Residential Finance, Investment Finance, and Asset Finance"
SP & Co. Finance,http://www.spfinance.net.au,,Banking,2-10 employees,"Rosehill, NSW",Sole Proprietorship,2015,"Unit 10,, 148 James Ruse Drive,, Rosehill, NSW 2150, AU",-33.82542,151.031784,"Finance, Residential Lending, Motor Vehicle Finance, Commercial Lending, and Competitive Interest Rates"
Zoom Home Loans Largs Bay - Mortgage Broker,http://zoomhomeloans.com.au,,Banking, ,,,, ,-34.826407,138.490121, 
Click Car Loans,http://clickcarloans.com.au,,Banking, ,,,, ,-37.879457,145.164186, 
Rado Financial Services - Commercial Finance,http://www.radofinancialservices.com.au,419236038,Banking,2-10 employees,"Marsfield, NSW",Self-Employed,2016,"P.O Box 3721, Marsfield, NSW 2122, AU",-33.782603,151.09386,"Contract Surety Performance Bonds up to AUD$300M, Commercial Finance, Construction Funding, Debtor Finance - Working Capital Funding, Leasing Finance -, Commercial Property Investment via SMSF Structures, Trade Credit Insurance, and Asset Purchase Finance"
LIVERINGA PASTORAL CO, ,,Banking,2-10 employees,"Welshpool, Western Australia",,, ,-18.04749,124.1727, 
BARCHAM Consulting, ,,Banking,2-10 employees,"Brisbane, qld",Privately Held,2017,"260 river street , Brisbane, qld 4001, AU",-27.469309,153.026164, 
Cutting Edge Finance,http://cutfinance.com,,Banking, ,,,, ,-35.726587,147.312256, 
Xcellerate Finance,http://xcelleratefinance.com.au,,Banking,2-10 employees,,Sole Proprietorship,2016,"Level 13/50 Cavill Ave, Surfers Paradise,  4217, AU",-28.002044,153.426727, 
First Australian Title Company Pty Limited, ,,Banking,2-10 employees,,,, ,-27.96055,151.60126, 
Strategy Support,http://www.strategysupport.com.au,,Banking,0-1 employees,"-, New South Wales",Public Company,2014,"Sydney, -, -, New South Wales 2000, AU", , ,"Statement of Advice Preparation, Adviser Audits, Strategy Modelling, and Statement of Advice Vetting"
ScanAlert International,http://www.scanalert.com.au,,Banking,0-1 employees,"Westleigh, NSW",Privately Held,, ,-37.687581,144.882238, 
IRIDIUM FINANCE GROUP,http://iridium-finance-group.business.site,,Banking, ,,,,"505 Grand Blvd, Craigieburn,  3064, AU",-37.590804,144.933042, 
BLUE SKY ALTERNATIVE INVESTM, ,,Banking, ,,,2006, ,-28.864455,153.532119, 
MortgageLater,https://www.homlea.com,,Banking,2-10 employees,,Privately Held,,"Sydney,   AU",-33.868633,151.209421, 
Ezy Finanz,https://facebook.com/Ezy-Finanz-525123324534855,,Banking,2-10 employees,"Glen Waverley, VIC",Public Company,2016,"12 Sanday Street, Glen Waverley, VIC 3150, AU",-37.884195,145.172378, 
Citibank N.A. (Sydney Branch), ,,Banking, ,"Sydney, New South Wales",,1996, , , , 
Your North Coast Money Man,http://www.moneyman.com.au,,Banking,0-1 employees,,Self-Employed,2001,"2450, AU",-30.189816,152.994896,Residential and Commercial Loans
Outsource Broker Support,https://obsupport.com.au/,,Banking,11-50 employees,"Melbourne, Victoria",Partnership,, , , , 
Bondi Broker,http://bondibroker.com.au,,Banking, ,,,, ,-33.893955,151.263686, 
Front Row Financial Management,http://frontrowfinancial.com.au,,Banking, ,,,, ,-37.923302,145.244171, 
Mitsubishi Bank Of Australia Ltd., ,,Banking, ,,,, , , , 
Unconditional Finance,http://unconditionalfinance.com.au,,Banking, ,,,, ,-27.471801,153.004077, 
"Royal Bank of Canada, Australian Branch", ,,Banking, ,"Sydney, New South Wales",,, ,-33.870159,151.17645, 
Rostron Finance Pty Ltd,http://rostronfinance.com.au,,Banking, ,,,,"56 Sumners Rd, Sumner,  4074, AU", , , 
EASTERN WEALTH GROUP,http://easternwealthgroup.com.au,,Banking, ,,,, ,-33.92755,151.24346, 
Made to Measure Lending,http://www.madetomeasurelending.com,403761616,Banking,0-1 employees,"Newcastle, NSW",Self-Employed,,"Newcastle, NSW 2290, AU",-32.9278,151.782607, 
WARRNAMBOOL AGRICULTURAL PTY. LTD., ,,Banking, ,"Warrnambool, Victoria",,, ,-38.3777,142.480446, 
Pioneer Permanent Building Society Ltd., ,,Banking,11-50 employees,"Mackay, QLD",,, ,-32.915636,151.784469, 
Famous Classic Car Insurance,http://www.famousinsurance.com.au,,Banking,2-10 employees,"Subiaco, Western Australia",,, ,-37.841253,144.938292, 
PORT HOME LOANS PTY LTD,http://www.porthomeloans.com.au/,,Banking,2-10 employees,"Port Douglas, Queensland",,, ,-27.415138,153.050796, 
Deep Credit Risk,http://www.deepcreditrisk.com/,,Banking,2-10 employees,,Educational Institution,, , , , 
MangoMoney.com.au,http://mangomoney.com.au,,Banking, ,,,, , , , 
Australian Finance Solutions,http://ausfinancesolutions.com.au,,Banking, ,,,, ,-32.732828,152.03024, 
Wellman Finance,http://wellmanfinance.com.au,,Banking, ,,,, ,-33.7485,151.2179, 
Ku-ring-gai Financial Services Limited,http://tlcbb.com.au,+61 2 9488 9496,Banking,11-50 employees,"Turramurra, New South Wales",Public Company,2002,"1273 PACIFIC HIGHWAY, CNR ROHINI ST, Turramurra, New South Wales 2074, AU",-33.723382,151.13662, 
"Hua Nan Commercial Bank Ltd., Australia Branch",http://syd.hncb.com,,Banking, ,"Sydney, New South Wales",,, ,-33.846591,151.072646, 
Rampam Enterprises Pty Ltd.,http://rampam.com.au/,,Banking,0-1 employees,,Privately Held,,"10 Leumeah Avenue, Baulkham Hills, Sydney,  2153, AU",-33.748847,150.965911,"Home Loans, Business Loans, Financial, and Banking"
FARMER FAMILY ENTERPRISES PTY LTD, ,,Banking,2-10 employees,"Bayswater North, Victoria",,, ,-33.050844,135.462072, 
Adec Services,http://adecservices.com,,Banking, ,"Kingston, Queensland",,, , , , 
The Wine Funding Co,tel:0400380593,,Banking,2-10 employees,"Sydney, New South Wales",Privately Held,2020, , , , 
Synergy Commercial Property Finance,http://www.synergycpf.com,,Banking,2-10 employees,"Melbourne, VIC",Privately Held,2014,"Level 7, 175 Collins Street, Melbourne, VIC 3000, AU",-37.815287,144.967998,"Construction Finance, Investment Finance, and Finance Tenders"
Newcastle Commercial Finance,http://newcastlecommercialfinance.com.au,,Banking,2-10 employees,,Privately Held,,"2/91 Frederick St, Merewether,  2291, AU",-32.948634,151.755529, 
Tundra Mortgage Broker Melbourne,https://tundramortgagebrokers.com.au/,,Banking,201-500 employees,"Melbourne, VIC",Partnership,1980,"Level 13, 200 Queen St, Melbourne, VIC  3000, AU",-37.813592,144.960333, 
ALL PURPOSE LOANS,http://allpurposeloans.com.au,,Banking, ,,,, ,-32.912205,151.743306, 
Acquired Financial Services,http://acquiredfinance.com,,Banking, ,,,, ,-38.14938,144.357135, 
Certe Finance,http://certefinance.com.au,,Banking, ,,,, , , , 
HSD Finance,http://hsdfinance.com.au,,Banking, ,,,, ,-27.471801,153.004077, 
Eventus Financial,http://eventusfinancial.com.au,,Banking, , , , , ,-37.985631,145.210948, 
Provide Finance,http://providegroup.com.au,,Banking, , , , , ,-27.471801,153.004077, 
Barry Lynam Home Loans Financial Services,http://lynamhomeloans.com.au,,Banking, ,"Bucasia, Queensland", , , , , , 
Multi-Choice Home Loans, ,,Banking, ,"Stafford, Queensland", , , , , , 
East Gosford & Districts Financial Services Limited, ,,Banking, ,"East Gosford, New South Wales", , , ,-33.434526,151.35405, 
FinFit Lending Solutions,http://finfitlending.com.au,,Banking, ,"Paddington, New South Wales", , , ,-31.934295,115.859167, 
East State Credit ,http://east-state-credit-services.business.site,351761811,Banking,2-10 employees,,Privately Held,1988,"6/8 Grey St, Traralgon,  3844, AU",-38.193609,146.541579, 
Qouz,https://heyqouz.com/,,Banking,2-10 employees,"Wynyard, New South Wales",Privately Held,2020,"York St, Wynyard, New South Wales 2000, AU",-33.866253,151.204675, 
Secure Finance Services Pty Ltd,http://securefinance.com.au,,Banking, ,,,, ,-25.536724,152.70365, 
EDNAM CAPITAL LTD, ,,Banking,2-10 employees,,Public Company,, ,-24.58333,141.38333, 
W One,http://www.westpac1.com,,Banking,0-1 employees,"Beecroft, New South Wales",Sole Proprietorship,2010,"18 Hannah St, Beecroft, New South Wales 2119, AU",-33.749195,151.064718,"Banking Information Technology, Financial Consulting, and Business Financial Plans"
JULIETTE JOHNSON CONSULTANCY LIMITED,http://www.juliettejohnson.com/about-us/,,Banking,2-10 employees,,,, ,-24.873653,152.332873, 
Priority One Network Group Limited,http://www.p1card.com,,Banking, ,"Melbourne, Victoria",,, , , , 
interAction Database Marketing & Data Services,http://iaction.com.au/database-marketing/,,Banking, ,,,,"Newcastle,   AU",-32.9278,151.782607, 
WebCash Pty Ltd, ,,Banking,2-10 employees,"South Perth, WA",Privately Held,2008,"3-15 Strickland Street, South Perth, WA 6151, AU",-31.978717,115.863278,"Banking, Purchases, Payment, and Funds Transfer"
MyChoice Home Loans,http://mychoicehomeloans.com.au,,Banking, ,,,, ,-27.415138,153.050796, 
Wagga Mutual Credit Union Limited, ,,Banking,11-50 employees,"Wagga Wagga, New South Wales",,, , , , 
ASA Finance Group - Truck Finance Brisbane,http://asafinancegroup.com.au,,Banking, ,,,,"Level 10/15 Green Square Cl, Fortitude Valley,  4006, AU",-23.992438,134.050443, 
Ezy Finance Deals,http://ezyfinancedeals.business.site,,Banking, ,,,, , , , 
Afshar Money Exchange,http://www.afsharex.com.au,,Banking,2-10 employees,"Melbourne, VIC",Privately Held,2014,"333 Highbury Rd, Burwood, Melbourne, VIC 3125, AU",-37.856513,145.123845, 
Complete Asset Management,http://camsdubbo.com.au,,Banking, ,,,, ,-37.905146,145.229042, 
eRefunds,https://eRefunds.com.au,,Banking,2-10 employees,"Cremorne, Victoria",Privately Held,2020,"580 Church St, Level 1, Cremorne, Victoria 3121, AU",-37.830129,144.996918, 
Ascentis Financial Services,http://ascentis.com.au,,Banking, ,,,, ,-38.14938,144.357135, 
Stealth Financials Services,http://stealthfinancialservices.com,,Banking, ,,,, , , , 
Fox Finance Group,http://foxfinancegroup.com,,Banking, ,"Maroochydore, Queensland",,, ,-37.24051,140.3539, 
Pinnacle Mortgages & Finance, ,,Banking,0-1 employees,"Warilla, NSW",Self-Employed,2017,"12 Beverley Avenue, 6, Warilla, NSW 2528, AU", , , 
Ezy Capital Australia,http://www.ezycapital.com.au/,,Banking,11-50 employees,"Melbourne, Victoria",Privately Held,2017,"416-420 Collins Street, Melbourne, Victoria 3000, AU",-37.81707,144.960353,Finance and Business Loans
Impact Home Loans,http://impacthl.com.au,,Banking, ,,,, ,-27.415138,153.050796, 
MOONYA Community services Inc, ,,Banking,2-10 employees,"WONTHAGGI, VIC",,, ,-37.984605,145.216851, 
Little Owls Early Learning Centre,http://littleowlschildcare.com.au,,Banking, ,"Beaconsfield, Victoria",,, ,-33.761866,151.229892, 
Sydney Gold Bullion Exchange,http://sydneygoldbullionexchange.com.au,,Banking, ,,,, , , , 
"Hua Nan Commercial Bank Ltd., Offshore Banking Branch", ,,Banking, ,,,, , , , 
Wyatt Financial Services Consulting,http://www.wyattfsc.com.au,,Banking,2-10 employees,"Sydney, NSW",Privately Held,2018,"PO Box 222 Mosman, Sydney, NSW 2088, AU", , ,"banking, financial services, risk, regulation, remediation, finance partnering, and consulting"
"Smartline Personal Mortgage Advisers, Amit ARYAL", ,,Banking,2-10 employees,"SPRINGFIELD LAKES, QLD",Self-Employed,,"Level 3, Sinnathamby Bld, SPRINGFIELD LAKES, QLD 4300, AU",-41.446797,147.157936, 
SERVICE ONE CREDIT UNION LIMITED,http://www.serviceone.com.au/,,Banking,51-200 employees,"Deakin, Australian Capital Territory",,, , , ,"Deakin, Australian Capital Territory"
Debt Free Direct Australia Pty Ltd., ,,Banking,2-10 employees,"Sydney, New South Wales",,, , , , 
Bluestone Equity Release Pty Ltd, ,,Banking,2-10 employees,"Sydney, New South Wales",,, ,-37.246235,144.449804, 
ChangeFund,http://www.changefund.co.nz,,Banking,2-10 employees,"Coffs Harbour, NSW",Privately Held,2016, , , ,"Lending, Investing, Social Enterprise, Peer to Peer Lending, FinTech, and Personal Lending"
Affordable Loans Pty Ltd,http://www.affordableloans.com.au,,Banking,2-10 employees,"Werribee, Vic",Privately Held,2002,"289 Heaths Road, Werribee, Vic 3030, AU",-37.876896,144.674537, 
Expertise and Track Record,http://www.theriskboard.com.au/,,Banking, ,,,,"Sydney,   AU", , , 
Yondr Money, ,,Banking,2-10 employees,,Public Company,,"Melbourne,   AU",-37.825071,144.978682, 
Conscious Financial,http://consciousfinancial.com.au,,Banking, ,,,, ,-26.614836,152.946917, 
Ezilend Newcastle,http://ezilendnewcastle.com.au,,Banking, ,,,, , , , 
Loan Select Tablelands,http://ssg.network,,Banking, ,,,, , , , 
Mortgage Broker 24/7,http://mortgagebroker247.com.au,,Banking, ,,,, ,-37.842013,144.93959, 
Keystart Finance,http://keystartfinance.com.au,,Banking, ,,,, ,-27.471801,153.004077, 
Property Before Prada,http://propertybeforeprada.com,,Banking, ,,,, ,-34.510467,144.843695, 
Inglewood & Districts Community Enterprises Limited, ,,Banking, ,"Inglewood, Victoria",,, ,-34.83333,138.76667, 
HSBC Building Society (Australia) Limited, ,,Banking, ,"Melbourne, Victoria",,, ,-33.416956,149.581355, 
VMoney 第一金融,http://vmoney.com.au,,Banking, ,,,, , , , 
GM Finance,http://gmfinanceplus.com.au,,Banking, ,,,, ,-33.934393,151.182976, 
Century 21 Home Loans,http://homeloansa.com.au,,Banking, ,,,, ,-33.875438,151.207579, 
Wisemoney Finance,http://wisemoneyfinance.com.au,,Banking, ,,,, ,-27.471801,153.004077, 
Car Finance 4 You,http://carfinance4you.com.au,,Banking, ,,,, ,-31.852926,115.894077, 
iMoney Financial,http://imoneyfinancial.com.au,,Banking, ,,,, ,-37.985631,145.210948, 
MortgageFree,http://mortgagefree.com.au,,Banking, ,,,, , , , 
Jdi Finance,http://jdifinance.com.au,,Banking, ,"Tweed Heads, New South Wales",,, ,-27.471801,153.004077, 
DC Payments Australasia Pty Ltd., ,,Banking, ,"Cheltenham, Victoria",,2001, ,-41.443546,147.139542, 
AUST AND NZ BANKING GROUP, ,,Banking,"10,001+ employees",,,1835, ,-37.909247,145.132663, 
The People's Banker,http://www.thepeoplesbanker.com,,Banking,2-10 employees,"Melbourne, VIC",Educational Institution,2017,"xxx, Melbourne, VIC 3000, AU",-27.467161,153.005811,banking
Obtain Finance,http://obtainfinance.com.au,,Banking,2-10 employees,"Randwick, NSW",Sole Proprietorship,2017, ,-27.471801,153.004077,"Home Loans, Business Lending, Car Loans, Personal Loans, Finance Broker, Investment Lending, and Construction Loans"
Beecher Wool Services,http://www.beecherwool.com.au/,,Banking, ,"COWRA, NSW",,, , , , 
WeXchange Foreign Exchange Perth,http://wexchange.com.au,,Banking, ,,,, , , , 
Golden Corporation Pty Ltd,http://goldencorporation.com.au,,Banking, ,,,, ,-37.84194,143.730551, 
Sain Aus Finance,http://sainausfinance.com,,Banking, ,,,, ,-33.96045,151.12055, 
Barclays Mortgage Centre,http://barclays.com.au,,Banking, ,,,, , , , 
Luxe Financial,http://luxefinancial.com.au,,Banking, ,"Shell Cove, New South Wales",,, , , , 
NorCen Financial Services Limited, ,,Banking, ,"Wallan, Victoria",,2006, , , , 
Xard Holdings Pty Ltd,https://www.xardglobal.com/,,Banking,11-50 employees,,Privately Held,,"Melbourne,   AU",-37.825071,144.978682, 
Turmeric Financial,http://turmeric.net.au,,Banking, ,,,, ,-37.985631,145.210948, 
"Banco Santander, S.A. (New South Wales, Australia)", ,,Banking, ,"Sydney, New South Wales",,, ,-33.888359,151.23202, 
Wine Bank of Australia, ,,Banking,11-50 employees,,,2011, ,-37.834076,144.961895, 
Bank Of Nova Scotia - Sydney, ,,Banking, ,,,, , , , 
Kredmo,https://www.kredmo.com.au,,Banking,2-10 employees,"SYDNEY NSW 2000, NSW",Privately Held,,"SYDNEY NSW 2000, NSW 2000, AU",-37.376365,144.968298, 
Private Label Fund,http://www.privatelabelfund.com.au,,Banking,2-10 employees,"Sydney, New South Wales",Privately Held,,"234 George St, Sydney, New South Wales 2000, AU",-33.863448,151.207715, 
Fund4Project,http://www.fund4projects.com/,,Banking,11-50 employees,,Self-Employed,2017, , , , 
Family Pharmacy Southgate, ,,Banking,2-10 employees,"Tamwoth, NSW",,, ,-35.45706,138.347807, 
SAGE MEDICAL PTY LTD, ,,Banking,2-10 employees,"Blacktown, New South Wales",,, ,-37.835136,144.97329, 
Bunbartha Fruit Packers Pty Ltd,http://www.austfruits.com.au/austfresh.html,,Banking,2-10 employees,"Wunghnu, Victoria",,, , , , 
The Maling Room,http://malingroom.com.au,,Banking, ,"Canterbury, Victoria",,, ,-37.824339,145.082591, 
Wingate Consumer Finance Pty Ltd,http://nowfinance.com.au,,Banking, ,"Melbourne, Victoria",,2012, ,-35.204848,149.031713, 
Wynnum Manly Community Bank Branch Of Bendigo Bank,https://www.bendigobank.com.au/branch/qld/wynnum-manly-community-bank-branch/,(07) 389 30286,Banking,11-50 employees,"Wynnum, Queensland",Privately Held,2017,"63 Bay Terrace, Wynnum, Queensland 4178, AU",-27.442865,153.17244,"Community banking, banking, insurance, customer service, home loans, sponsorship, community, grants, and personal loans"
Cash2Crypto,https://cash2crypto.exchange/home,,Banking,51-200 employees,"Brisbane, New South Wales",Privately Held,,"Brisbane, New South Wales 444444, AU",-34.79872,149.72413, 
FastX,http://www.fastx.io,,Banking,11-50 employees,"Sydney, New South Wales",Privately Held,2018,"71 Balfour St, Sydney, New South Wales 2008, AU", , , 
Yap Cards,http://yap.cards,,Banking,11-50 employees,"Sydney, NSW",Partnership,2017,"100 Barangaroo Street, Sydney, NSW 2000, AU",-33.868633,151.209421,Banking and Payments
Asimi LLC,https://www.asimi.io,,Banking,2-10 employees,"Surfers Paradise, Queensland",Privately Held,,"50 Cavill Ave, Level 13, Surfers Paradise, Queensland 4217, AU",-28.002044,153.426727, 
Pickled Pig Brewery,http://pickledpigbrewery.com.au,,Banking, ,"Tweed Heads South, New South Wales",,, ,-38.38484,142.48342, 
JK Lending Solutions,http://jklendingsolutions.com.au,,Banking, ,,,, ,-27.502332,152.97414, 
MortgageLink,http://mortgagelink.biz,,Banking, ,,,, , , , 
Zero Mortgage,http://zeromortgage.com.au,,Banking, ,,,, ,-37.842013,144.93959, 
Home Loan Hub,http://homeloanhub.com.au,,Banking, ,,,, ,-27.415138,153.050796, 
Red Tie Mortgages,http://redtiemortgages.com.au,,Banking, ,,,,"shop 2/153 George St, Liverpool,  2170, AU",-33.921215,150.924829, 
Ressfin,http://ressfin.com.au,,Banking, ,,,, , , , 
坤达速汇 Kundax Foreign Exchange Sydney CBD,http://kundagroup.com.au,,Banking, ,,,, , , , 
WestLend Mortgage Brokers,http://westlend.com.au,425272286,Banking,2-10 employees,,Sole Proprietorship,2019,"32 Bija Dr, Glenmore Park,  2745, AU",-33.787379,150.678511, 
Wise Lending QLD,http://wiselendingqld.com.au,,Banking, ,,,, ,-28.059023,153.42924, 
Sankofa Funds Management Pty Ltd,http://sankofafund.com.au,,Banking, ,,,, , , , 
PFP Wealth Group,http://pfpwealth.com.au,,Banking, ,,,, ,-37.889992,145.042642, 
MT Loan Solutions,http://mtloansolutions.com.au,,Banking, ,,,, ,-37.879457,145.164186, 
KRR Accountants & Finance Brokers,http://krr.com.au,,Banking, ,,,, ,-38.157143,144.350556, 
Bang On Investments,http://bangoninvestments.com.au,,Banking, , , , , ,-32.927214,151.774748, 
FSCU,http://fscu.com.au,,Banking, , , , , , , , 
All Access Finance,http://allaccessfinance.com.au,,Banking, , , , , , , , 
Significant Financial Solutions Pty Ltd,http://significantfinancialsolutions.com.au,,Banking, , , , , , , , 
Loan Plaza,http://loanplaza.com.au,,Banking, , , , , ,-31.953773,115.859396, 
Connect Loans,http://connectloans.com.au,,Banking, , , , , ,-37.879457,145.164186, 
Prompt Easy Finance Pty Ltd,http://pefinance.com.au,,Banking, , , , ,"34D Lacey St, Beckenham,  6107, AU",-32.016711,115.956805, 
Nortpoint Mortgage,http://northpointmortgage.com.au,,Banking, , , , , ,-37.842013,144.93959, 
Red & Blue Home Loan Pty Ltd,http://redandbluehomeloan.com.au,,Banking, , , , , ,-20.31667,148.5, 
SBA Mortgage solution,http://sbamortgagesolution.com.au,,Banking, , , , , , , , 
JFS Financial Strategists,http://jfsadvisory.com.au,,Banking, , , , , , , , 
NewLeaf Finance,http://newleaffinance.com.au,,Banking, , , , , ,-27.471801,153.004077, 
Mortgage Masters Queensland,http://mortgagemastersqueensland.com.au,,Banking, , , , , ,-27.45107,153.056212, 
Godwin Finance,http://godwinfinance.com.au,,Banking, , , , , ,-27.088554,153.092478, 
Hawk Eye Finance Pty Ltd,http://hawkeyefinance.com,,Banking, , , , , ,-18.939354,146.080864, 
The Money Centre Melbourne City,http://themoneycentre.com.au,,Banking, , , , , , , , 
Green Box Home Loans,http://greenboxhomeloans.com.au,,Banking, , , , , , , , 
Firstcall Financial Services,http://firstcallnsw.com.au,,Banking, , , , , ,-38.14938,144.357135, 
Spotter Loans,http://spotterloans.com.au,,Banking, , , , , ,-37.879457,145.164186, 
Sjs wealth solutions,http://sjswealthsolutions.com,,Banking, , , , , , , , 
Best Mortgage Solutions,http://assetpacific.com.au,,Banking, , , , , ,-28.655794,151.933208, 
Brite Financial Solutions,http://britefs.com.au,,Banking, , , , , ,-27.499054,153.046152, 
Breakwall Finance,http://breakwallfinance.com.au,,Banking, , , , , ,-31.427826,152.913363, 
Northern Beaches Mortgage & Finance,http://nbmf.com.au,,Banking, , , , , ,-36.83813,142.9199, 
Pacifica Loans,http://pacificaloans.com.au,,Banking, , , , , ,-33.866214,151.202846, 
Linear Mortgage Brokers,http://linearmortgagebrokers.com.au,,Banking, , , , , , , , 
Wallstreet Foreign,http://wallstreetfx.com.au,,Banking, , , , , ,-37.814839,144.963618, 
Mr Mentor,http://mrmentor.com.au,,Banking, , , , , ,-41.530684,146.673359, 
7 Mortgages,http://7mortgages.com.au,,Banking, , , , , ,-38.006588,145.086915, 
My Finance Network,http://myfinancenetwork.com.au,,Banking, , , , , ,-17.396451,124.113404, 
SEQ Advice,http://fdgplanners.com.au,,Banking, , , , , ,-27.464314,153.049293, 
Uneek Mortgage Services,http://uneekmortgages.com.au,,Banking, , , , , , , , 
LMW Wholesale Pty Ltd,http://lmwwholesale.com.au,,Banking, , , , , , , , 
JB Home Loans,http://jbhl.com.au,,Banking, , , , , ,-27.415138,153.050796, 
KNG Financial Services,http://kng.com.au,,Banking, , , , , ,-38.14938,144.357135, 
Rosa Financial Services,http://rosafinancialservices.com.au,,Banking, , , , , ,-38.14938,144.357135, 
Beyond Capital Asset Management,http://beyondcapital.com.au,,Banking, , , , , ,-35.252962,149.072124, 
CURSIO GROUP,http://cursio.com.au,,Banking, , , , , ,-38.148594,144.36658, 
CUFSS Limited,http://cufss.com.au,,Banking, , , , , ,-34.60154,144.812997, 
Ezilend,http://ezilend.com.au,,Banking, , , , , , , , 
That Wall Street Guy,http://thatwallstreetguy.com,,Banking, , , , , , , , 
Remedy Housing,http://remedyhousing.com.au,,Banking, , , , , ,-35.310814,149.145485, 
Finance Fitness Coaching,http://financefitnesscoaching.com.au,,Banking, , , , , , , , 
Ausloans Mildura,http://ausloans.com.au,,Banking, , , , , , , , 
Money Saver Home Loans,http://moneysaverhomeloans.com.au,,Banking, , , , , , , , 
Service One Members Banking,http://soalliancebank.com.au,,Banking, , , , , ,-32.936807,117.169779, 
Queensland finance group,http://qldfinancegroup.com.au,,Banking, , , , , ,-23.033708,144.417144, 
Platinum Global Investments,http://platinumglobalinvestment.com,,Banking, , , , , ,-27.628856,153.297684, 
Aussie Kenmore, ,,Banking, ,"Kenmore, Queensland", , , ,-27.508771,152.938168, 
Broadwater Financial Services Limited, ,,Banking, ,"Biggera Waters, Queensland", , , , , , 
Royal Guardian Mortgage Corporation,http://royalguardian.com.au,,Banking, ,"Burwood, New South Wales", , , ,-34.87415,138.51189, 
Bacchus Marsh Community Enterprise Limited,http://bendigobank.com.au,,Banking, ,"Bacchus Marsh, Victoria", , , ,-37.672259,144.431034, 
Lextech (Backed by Purcell Partners),http://lex-tech.com.au,,Banking,11-50 employees,"Melbourne, Victoria", , , , , , 
Clifroy Limited,http://clifroy.com,,Banking, ,"Clifton Hill, Victoria", , , ,-34.60154,144.812997, 
Police Financial Services Limited,http://bankvic.com.au,,Banking, ,"Carlton, Victoria", ,1974, , , , 
Fresh Housing Loans, ,,Banking, ,, ,, , , , 
Manningham Community Enterprises Limited, ,,Banking, ,"Doncaster East, Victoria", ,, , , , 
ABG Financial Group Pty Ltd,http://abgfinance.com.au,,Banking, ,, ,, , , , 
Vision Property and Finance Newcastle, ,,Banking, ,"Mt Hutton, New South Wales", ,, ,-33.869904,151.21334, 
Park Regis North Quay, ,,Banking, ,"Brisbane, Queensland", ,, ,-27.467003,153.01647, 
Crown Alliance Financial Services,http://crownalliance.com.au,,Banking, ,"Deakin, Australian Capital Territory", ,, , , ,"Deakin, Australian Capital Territory"
Gosnells Financial Services Limited, ,,Banking,2-10 employees,"Gosnells, Western Australia", ,, , , , 
ACE Lending Solutions,http://acelendingsolutions.com.au,,Banking, ,, ,, ,-37.770345,144.810618, 
Accredited Lending Services,http://accreditedlending.com.au,,Banking, ,"Kenmore, Queensland", ,, , , , 
Repay Company,http://www.repaycompany.com.au,,Banking,0-1 employees,"Perth, Western Australia",Privately Held,,"Perth, Western Australia 6000, AU",-31.956035,115.847023, 
Circle Mutual Limited,http://circle.com.au,,Banking, ,"Deer Park, Victoria",,, ,-34.277984,146.042766, 
Global Administration Solutions P/L, ,,Banking,2-10 employees,"Melbourne, Victoria",Privately Held,,"Melbourne, Victoria 3000, AU",-37.813046,144.962398, 
Undersee Australia Pty ltd, ,,Banking,2-10 employees,"Brookvale, New South Wales",,, , , , 
JR Corporate, ,,Banking, ,"WINDSOR, NSW",,, ,-37.800817,144.900661, 
10 Keys To A Profitable Business,http://gregorybusinesscoaching.com,,Banking, ,"Mermaid Waters, Queensland",,, ,-33.924935,150.910256, 
Hot burek pastry,http://hotburek.com,,Banking, ,,,, ,-33.30707,115.81368, 
Heavy Equipment Finance Australia,http://hefa.com.au,,Banking, ,,,, ,-28.079428,153.411044, 
Lloyds Bank NZA Ltd., ,,Banking, ,,,, ,-38.382704,142.233177, 
SAI GROUP PTY LIMITED, ,,Banking,11-50 employees,"BRISBANE, QLD",,, ,-28.328291,153.392998, 
Anastasia Theodoropoulos - Loan Market,https://www.loanmarket.com.au/anastasia-theodoropoulos,,Banking,0-1 employees,"Brighton-le-Sands, New South Wales",Public Company,,"340 Bay St, Brighton-le-Sands, New South Wales 2216, AU",-33.95953,151.153753, 
Your Loan Doctor,http://yourloandoctor.com.au,,Banking, ,,,, ,-33.188169,116.266353, 
Loan Smart,http://loansmart.com.au,,Banking, ,,,, ,-37.984314,145.211197, 
Supay,http://supay.com,,Banking, ,,,, , , , 
IPTC LIMITED, ,,Banking,2-10 employees,,,, ,-34.60154,144.812997, 
Financial Alliance Network PTY Ltd.,http://financialalliance.com.au,,Banking, ,,,, ,-37.985631,145.210948, 
Q&D Mortgage Broking,http://qandd.com.au,,Banking, ,,,, , , , 
AustralAsian Mortgage Finance Ltd,http://australasianmortgage.com,,Banking, ,,,, , , , 
Gravitas Finance,http://gravitasfs.com.au,,Banking, ,,,, ,-27.471801,153.004077, 
Broker Pulse,https://www.brokerpulse.com.au/,(02) 9922 3300,Banking,2-10 employees,"North Sydney, New South Wales",Privately Held,2019,"132 Arthur St, North Sydney, New South Wales 2060, AU",-33.838533,151.209817, 
Desire Loans,http://www.desireloans.com.au,,Banking,2-10 employees,"Raby, NSW",Privately Held,,"Raby, NSW 2566, AU",-34.022063,150.839601, 
Assets & Funds Management Group,http://afmgroup.com.au,,Banking, ,,,, , , , 
AETOS Capital Group Holdings Ltd,http://aetoscg.com.au,,Banking, ,,,, , , , 
Capify Small Business Loans,http://capify.com.au,,Banking, ,,,, , , , 
EasyPlan Financial Services,http://easyplan.com.au,,Banking, ,,,, ,-38.14938,144.357135, 
Beacon Lending,http://beaconlend.com.au,,Banking, ,,,, ,-33.7528,151.25857, 
Home Group WA - Florida Platinum,http://homegroupwa.com.au,,Banking, ,,,, ,-38.007115,145.096095, 
Platinum Financial Hub Pty Ltd,http://platinumfinancial.com.au,,Banking, ,,,, , , , 
Lime Street Wealth Finance Pty Ltd,http://limestreetwealthfinance.com,,Banking, ,,,, ,-33.27312,149.74297, 
Mortgage Broker Solutions,http://rex-matthews-mortgage-broker.business.site,,Banking, ,,,, ,-37.842013,144.93959, 
Loan Safari,http://loansafari.com.au,,Banking, ,,,, ,-37.879457,145.164186, 
Pinoy First Pty,http://paymoto.com.au,,Banking, ,,,, , , , 
Proficient Finance Group,http://pfinancegroup.com.au,,Banking, ,,,, , , , 
Legion Access Bank,http://legionaccess.com,,Banking, ,,,, , , , 
Loantec - Everything Finance,http://loantec.com.au,,Banking, ,,,, , , , 
Ria moneyTransfer Palmerston,http://riamoneytransfer.com,,Banking, ,,,, ,-41.2,146, 
Sweetie Lending,http://sweetielending.com,,Banking, , , , , ,-36.308422,140.773014, 
Numbers Pro,http://numberspro.com.au,,Banking, , , , , ,-33.840216,151.208294, 
Royal Bank of Canada (Sydney Branch), ,,Banking, ,"Sydney, New South Wales", ,1997, , , , 
National Mortgage Market Corporation Pty Ltd.,http://nmmc.com.au,,Banking, ,"Docklands, Victoria", ,1984, , , , 
Keystart Country Home Loans, ,,Banking,51-200 employees,"Perth, Western Australia", ,, , , , 
Mortgage Australia - Mark Lendich,http://mortgageaustralia.com.au,,Banking, ,"Claremont, Western Australia", ,, ,-32.06613,115.888925, 
RateSetter.com.au, ,,Banking, ,, ,, , , , 
tim - The Invoice Market,http://theinvoicemarket.com.au,,Banking,11-50 employees,"Sydney, New South Wales", ,2014, , , , 
iChoice 100% Free Mortgage Brokers,http://ichoice.com.au,,Banking,11-50 employees,"Sydney, New South Wales", ,2005, , , , 
Community CPS,http://communitycps.com.au,,Banking, ,"Mount Barker, South Australia", ,, ,-28.177493,153.431021, 
IW Finance, ,,Banking,2-10 employees,"Sydney, New South Wales",Privately Held,,"9/155 Castlereagh St, Sydney, New South Wales 2750, AU",-33.868633,151.209421,"residential mortgages, home loans, customer service, Investment loans, debt consolidation, family equity, and tailored solutions"
SAS For Finance,https://www.cidemo.sas.com/subsites/finance/sspras/,,Banking,0-1 employees,"Lane Cove, New South Wales",Privately Held,,"300 Burns Bay Rd, Lane Cove, New South Wales 2066, AU",-33.82125,151.152201, 
Villiers Street Canteen,http://villiersstcanteen.com.au,,Banking, ,"Parramatta, New South Wales",,, ,-32.901855,151.740114, 
The Referral Network,http://thereferralnetwork.com.au,,Banking, ,,,, ,-27.486624,153.040278, 
Norstate,http://norstate.net.au,,Banking, ,"Townsville, Queensland",,, , , , 
Beauty & Hair Supplies, ,,Banking, ,"Richmond, New South Wales",,, ,-36.732982,147.172565, 
Australian Credit Union Archives,http://mycuhistory.com.au,,Banking, ,,,, ,-38.149658,144.356313, 
Shire Local Banking,http://shirecu.com.au,,Banking, ,,,, ,-34.07202,151.07712, 
MANLY WARRINGAH CREDIT UNION LIMITED,https://www.nbcu.com.au/,,Banking,11-50 employees,"Dee Why, New South Wales",,, , , , 
Freedom Leisure Finance,http://freedomleisure.com.au,,Banking, ,,,, ,-37.812365,145.011703, 
Charter Group Finance,http://chartergroupfinance.com.au,,Banking, ,,,, , , , 
Flexi Commercial Loans,http://flexicommercialloans.com.au,,Banking, ,,,, , , , 
Australian Personal Loan Company,http://auspersonalloanco.com.au,,Banking, ,,,, , , , 
Geelong Finance Company,http://geelongfinance.com.au,,Banking, ,,,, ,-37.959187,144.356688, 
TIM Holdco Pty,http://timfinance.com.au,,Banking, ,,,, ,-37.863261,145.079286, 
Caveat Loans Australia Wide,http://caveatloans.finance,,Banking, ,,,, ,-37.096423,145.508062, 
Blackbird Mortgage Solutions,http://blackbirdmortgagesolutions.com.au,,Banking, ,,,, ,-37.195828,146.344781, 
Broadland Mortgage Advisers,http://broadlandma.com,,Banking, ,,,, ,-41.431451,147.156756, 
Rands Financial Services - Mortgage Broker,http://randsfinancialservices-mortgage-broker.business.site,,Banking, ,,,, ,-38.041978,145.288947, 
"Bank of Baroda, Sydney Branch",http://bankofbaroda.com.au,,Banking, ,,,, ,-33.907714,151.185134, 
Partner Financial Services,http://partnerfs.com.au,,Banking, ,,,, ,-38.14938,144.357135, 
Alert Finance Pty Ltd,http://alertfinance.com.au,,Banking, ,,,, ,-27.305409,152.886335, 
Golden Brick Financial Group PL,http://goldenbrick.com.au,,Banking, ,,,, ,-38.149079,144.357381, 
Financial Inclusion Network,http://financialinclusionnetwork.com.au,,Banking, ,,,, , , , 
The Home Loan Advisory,http://thehomeloanadvisory.com.au,,Banking, ,,,, ,-37.622929,145.002128, 
Trusty Money,http://trustymoney.com.au,,Banking, ,,,, ,-32.332061,115.803762, 
Nightcliff Community Bank® Branch Bendigo Bank,http://nightcliffcommunity.com,,Banking, ,,,, ,-41.160536,146.540527, 
TL Rentals,http://tlrentals.com.au,,Banking, ,,,, ,-26.193603,152.667535, 
PMR Financial Mortgage Broker,http://pmrfinancial.com.au,,Banking, ,,,, , , , 
Ron Andersen,http://ronandersen.com.au,,Banking, ,,,, ,-33.136033,148.174336, 
Tango Home Loans,http://tangoloans.com.au,,Banking, ,,,, ,-27.415138,153.050796, 
Gleeson Loans,http://gleesonloans.com.au,,Banking, ,,,, , , , 
Finnex Business Loans Lakemba,http://finnex.com.au,,Banking, ,,,, , , , 
Lending 123,http://lending123.com.au,,Banking, ,,,, ,-33.947955,151.239927, 
Grow Agribusiness and Finance,http://growfg.com.au,,Banking, ,,,, ,-38.010116,145.103127, 
GE Money Southport,http://gemoney.com.au,,Banking, ,,,, ,-27.663298,153.176986, 
Accumulus Home Loans,http://accumulusholdings.com.au,,Banking, ,,,, ,-27.415138,153.050796, 
Hillross Doncaster,http://hillrossdoncaster.com.au,,Banking, ,,,, , , , 
In-House Finance Group (Sydney) Pty Ltd,http://inhousefinancegroup.com.au,,Banking, ,,,, ,-33.888167,151.193037, 
Orica Financial Services,http://oricafs.com.au,,Banking, ,,,, ,-38.14938,144.357135, 
Islamic Co-Operative Finance Australia Limited,http://icfal.com.au,,Banking, ,,,, ,-32.044785,115.936972, 
Assurance Finance and Business Solutions Pty,http://afbs.com.au,,Banking, ,,,, ,-38.010116,145.103127, 
Woodrow Finance,http://woodrowfinance.com.au,,Banking, ,,,, ,-38.15455,142.3178, 
WEB Financial and Insurance Services Pty Ltd,http://webfis.com.au,,Banking, ,,,, , , , 
Oliver Hume Home Loans,http://ohhomeloans.com.au,,Banking, ,,,, , , , 
Superforex Melbourne,http://superforex.com.au,,Banking, ,,,, ,-33.79698,151.181115, 
Wasley Private Wealth,http://wasleyprivatewealth.com.au,,Banking, ,,,, ,-34.47226,138.681675, 
South East Finance,http://southeastfinance.com.au,,Banking, ,,,, ,-36.83073,139.8522, 
Sunshine Coast Mortgage Broker,http://sunshinecoastmortgagebroker.com,,Banking, ,,,, , , , 
Perfect Payday,http://perfectpayday.com.au,,Banking, ,,,, ,-33.921252,150.924122, 
Smart Home Loans Group,http://shlg.com.au,,Banking, ,,,, ,-37.984314,145.211197, 
Mason Lane Finance,http://masonlane.finance,,Banking, ,,,, ,-37.841786,144.878866, 
APS Benefits Group Ltd,http://apsbenefitsgroup.com.au,,Banking, ,,,, , , , 
Spaceship Financial Services Pty Ltd,http://spaceship.com.au,,Banking, ,,,, ,-38.14938,144.357135, 
Pacific 8,http://pacific8.com.au,,Banking, ,,,, ,-27.93994,153.31436, 
Your Loan Zone,http://yourloanzone.com.au,,Banking, ,,,, ,-33.188169,116.266353, 
Accession Finance: Mortgage Brokers Melbourne,http://accessionfinance.com.au,,Banking, ,,,, , , , 
Aqua Mortgage Solutions,http://aquamortagesolutions.com.au,,Banking, ,,,, , , , 
Coral Coast Mortgage Solutions,http://coralcoastmortgages.com.au,,Banking, ,,,, , , , 
Account(able) Home Loans & Finance,http://accountableloans.com.au,,Banking, ,,,, ,-27.415138,153.050796, 
Solar & Energy Finance,http://finance.energy,,Banking, ,,,, ,-32.415067,137.841279, 
Elevare Pay Easy,http://elevarepayeasy.com.au,,Banking, ,,,, , , , 
Arctic Finance Group,http://arcticfinancegroup.com.au,,Banking, ,,,, , , , 
Multipart Finance Pty,http://multipartfinance.com.au,,Banking, ,,,, ,-37.891427,145.142755, 
Tanz Mortgage Broker,http://tanzmb.com.au,,Banking, ,,,, ,-37.842013,144.93959, 
IntelliLend,http://intellilend.com.au,,Banking, ,,,, , , , 
Cupid Finance Australia - Financial Broker,http://cupidfinanceaustralia.com.au,,Banking, ,,,, ,-34.829177,138.672623, 
JAC-UNITY Financial,http://unityfinancial.com.au,,Banking, ,,,, ,-25.53729,152.701054, 
Sunshine Coast Financial Solutions,http://scfsolutions.com.au,,Banking, ,,,, ,-26.633507,153.089756, 
Frangipani Finance,http://frangipanifinance.com.au,,Banking, ,,,, ,-20.348713,148.960695, 
SUNNY FINANCE,http://sunnyfinance.com.au,,Banking, ,,,, ,-33.38333,149.9, 
Connect 4FS Mortage Broker & Financial Planner,http://connect4fs.com.au,,Banking, ,,,, , , , 
TOKA Accountants & Business Advisors,http://toka.com.au,,Banking, ,,,, ,-38.157143,144.350556, 
Investloan,http://investloan.com.au,,Banking, ,,,, , , , 
Bright Finance Solutions,http://brightfinance.com.au,,Banking, ,,,, ,-36.72998,146.95978, 
SAF Financial Service Pty Ltd,http://saffinancial.com.au,,Banking, ,,,, ,-38.041978,145.288947, 
My Mortgage Manager,http://mymortgagemgr.com.au,,Banking, ,,,, ,-17.396451,124.113404, 
Tassie Mortgage Broker,http://tassiemortgagebroker.com.au,,Banking, ,,,, ,-37.144031,145.204685, 
Xs Card Solutions,https://xscardsolutions.com/,+61 405 107 192,Banking,2-10 employees,"Sydney, NSW",Privately Held,,"Sydney, NSW  AU",-33.868633,151.209421,Card Management Solutions
Colonial Finance Limited, ,,Banking, ,,,1994, , , , 
Grant Winchester - Finance Professional, ,,Banking, ,,,, ,-37.885039,140.618156, 
First Choice Mortgage & Finance Pty,http://firstchoicemf.com.au,,Banking, ,"South Perth, Western Australia",,, ,-37.842013,144.93959, 
Ausway Finance,http://auswayfinance.com.au,,Banking, ,,,, ,-27.471801,153.004077, 
"Big Sky Lending, LLC", ,,Banking, ,,,, ,-30.330594,149.784357, 
Transcomm Credit Union,http://transcomm.com.au,,Banking,11-50 employees,"Melbourne, Victoria",,, ,-33.797418,151.142756, 
ING Bank N.V. (Sydney Branch), ,,Banking, ,"Sydney, New South Wales",,1997, ,-38.382704,142.233177, 
Australian Home Mortgage,http://australianhm.com.au,,Banking, ,"Aspley, Queensland",,, ,-28.642492,153.610197, 
IBJ Australia Bank Limited, ,,Banking, ,"Sydney, New South Wales",,, ,-37.813212,144.970059, 
"Hongkong and Shanghai Banking Corporation Limited, Sydney Branch", ,,Banking, ,"Sydney, New South Wales",,, ,-37.811522,144.968325, 
Club Financial Services Taree, ,,Banking, ,"Taree, New South Wales",,, ,-38.14938,144.357135, 
Wise Loan,http://wiseloan.com.au,,Banking, ,"Forestville, New South Wales", , , ,-38.373157,145.125503, 
Loan Assistant | Loan Submission | NCCP Compliance - for busy Mortgage Brokers - 1300 387 554,http://loanassistant.com.au,,Banking,2-10 employees,"Sydney, New South Wales", ,2013, , , , 
Commercial Bank Chambers,http://cbchambers.com.au,,Banking, ,"Lismore, New South Wales", ,, ,-27.452801,153.041856, 
"Bank of Scotland plc, Australia branch", ,,Banking, ,"Sydney, New South Wales", ,2007, ,-33.846591,151.072646, 
Lakeside Pakenham Community Enterprise Limited, ,,Banking, ,"Lakeside Pakenham, Victoria", ,, , , , 
Mizuho Corporate Australia Ltd., ,,Banking, ,, ,, , , , 
Your say ANZ,https://yoursay.anz.com/Portal/default.aspx,433598989,Banking,"5,001-10,000 employees","Perth, WA",Public Company,1983,"a, 10, Perth, WA 6021, AU",-31.960773,115.834088, 
Panetta Finance,http://www.sampanetta.com,,Banking,0-1 employees,"Brookvale, NSW",Privately Held,,"117 Old Pittwater Road, Suite 114, Brookvale, NSW 2100, AU",-33.766771,151.262776,"Finance Broking, Mortgage Broking, Investment Lending, Business Lending, Refinancing, and Asset Finance"
NoLostSuper,http://www.nolostsuper.com.au,,Banking,"501-1,000 employees","., Queensland",Privately Held,,"Robina,  ., Queensland 4226, AU",-28.080832,153.386136, 
CBL Analytics,http://cblanalytics.com,,Banking,2-10 employees,"Brisbane City, Queensland",Privately Held,2004,"46 Edward St, Brisbane City, Queensland 4000, AU",-27.471403,153.029504, 
Xard Group of Companies, ,,Banking,2-10 employees,"Southbank, Victoria",Privately Held,,"40 City Rd, Southbank, Victoria 3006, AU",-37.821162,144.966716, 
Armour Funds Management, ,,Banking,11-50 employees,"Brisbane, Queesland",Public Company,,"Milton, Brisbane, Queesland 4064, AU",-27.468963,153.00504, 
Choice Home Loans Wheelers Hill,http://www.choicehomeloanswheelershill.com.au,,Banking,2-10 employees,"Wheelers Hill, Victoria",Privately Held,2016,"Suite 19, Level 1, 202 Jells Road, Wheelers Hill, Victoria 3150, AU",-37.911324,145.18951,"Construction loans, Refinancing, First Home Buyers Specialist, Foreign Investor Specialist, Self Managed Super Fund Lending, Debt Consolidation, Personal Loans including Cosmetic Loans, and Self Employed and Small Business Specialist"
RED FINANCE PLATFORMS LIMITED, ,,Banking, ,,,, , , , 
Deutsche Managed Investments Limited,http://www.dbaccess.db.com,,Banking,2-10 employees,"Sydney, New South Wales",,, , , , 
WILLIAM HANLEY PTY LTD, ,,Banking, ,"BOTANY, NSW",,, ,-37.79215,148.554298, 
Sculpt Clinic Sydney,http://sculptclinic.com.au,,Banking, ,,,, ,-33.873549,151.206589, 
Gunnedah Rural Health Centre,http://grhc.com.au,,Banking, ,"Gunnedah, New South Wales",,, ,-20.730529,139.494765, 
CAPITAL CREATION Pty Ltd,http://www.capitalcreation.com.au,,Banking,2-10 employees,"Southbank, Victoria",,, ,-35.470057,148.954507, 
TKO MANAGEMENT LIMITED,http://www.tko.technology/,,Banking,2-10 employees,,,, , , , 
Carla Florist,http://www.carlaflorist.com,,Banking,2-10 employees,"Double Bay, NSW",,, ,-33.702288,151.112777, 
Southcorp Finance Ltd., ,,Banking,11-50 employees,,,, ,-27.454938,153.049326, 
"LightPointe Europe, GmbH",http://www.lightpointe.de,,Banking,2-10 employees,"North Sydney, NSW",,, ,-38.143293,144.351637, 
Asset Advantage Global,http://www.mortgagemax.com.au,,Banking, ,,,,"Suite 2, 191 President Ave, MONTEREY, NSW 2217, AU",-33.96675,151.150653, 
learning linkedin ad, ,,Banking,0-1 employees,"Sydney, New South Wales",Self-Employed,,"Sydney, New South Wales 2144, AU",-33.868633,151.209421, 
Limitless Numbers,http://www.limitlessnumbers.com.au,,Banking,0-1 employees,"Perth, WA",Self-Employed,2019,"Perth, WA 6450, AU",-31.960773,115.834088, 
First Cashflow Solutions,http://firstcashflowsolutions.com.au,,Banking, ,,,, ,-26.630983,152.949797, 
Sage Lending Solutions,http://sagelending.com.au,,Banking, ,,,, ,-37.814295,145.230313, 
Koala Loans,http://koalaloans.com.au,,Banking, ,,,, ,-37.879457,145.164186, 
MAB Broker Services Pty,http://mortgageadvicebureau.com.au,,Banking, ,,,, , , , 
BARRISTER HOME LOANS,http://barristerhomeloans.com.au,,Banking, ,,,, ,-27.415138,153.050796, 
Squared Financial Solutions,http://squaredfinancial.com.au,,Banking, ,,,, ,-27.499054,153.046152, 
James N Kirby Foundation,http://kirbyfoundation.com.au,,Banking, ,,,, ,-32.000385,115.909504, 
Forbes Financial Planning Geelong,http://forbesfp.com.au,,Banking, ,,,, ,-38.145258,144.363054, 
Ausia Home Loans,http://ausiahomeloans.com.au,,Banking, ,,,, ,-27.415138,153.050796, 
Caveat Capital,http://caveatloanscapital.com.au,,Banking, ,,,, ,-37.096423,145.508062, 
Cabramatta CLS Homeloan,http://cabramatta-cls-homeloan.business.site,,Banking, ,,,, ,-33.895676,150.934999, 
One Stop Tax. Kind,http://onestoptax.com.au,,Banking, ,,,, ,-37.899144,145.093889, 
Genius Loan Solutions Pty Ltd,http://geniusloansolutions.com.au,,Banking, ,,,, , , , 
Oxbrey Financial Group,http://oxbrey.com,,Banking, ,,,, ,-38.149079,144.357381, 
Mortgage Solutions Hobart,http://mortgagesolutionshobart.com.au,,Banking, ,,,, ,-37.842013,144.93959, 
Bespoke Home Loans,http://bespokehomeloans.com.au,,Banking, ,,,, ,-27.415138,153.050796, 
Get Ahead Finance,http://getaheadfinance.com.au,,Banking, ,,,, , , , 
Vehicle Masters,http://vehiclemasters.com.au,,Banking, ,,,, ,-36.38257,145.708076, 
Pawn a Car,http://pawnacar.com.au,,Banking, ,,,, ,-35.095572,147.380404, 
flindersgroup.com,http://flindersgroup.com,,Banking, ,,,, , , , 
Snap Loans,http://snaploans.com.au,,Banking, ,,,, ,-37.770661,144.979914, 
Punters Finance,http://puntersfinance.com.au,,Banking, ,,,, ,-27.471801,153.004077, 
MHPNW,http://mhpnw.com.au,,Banking, ,,,, , , , 
XS Finance,http://xsfinance.com.au,,Banking, ,,,, ,-28.216306,152.032222, 
Hudson Gray Home Loans,http://hudsongrayhomeloans.com,,Banking, ,,,, , , , 
Rook & Associates,http://rookassociates.com.au,,Banking, ,,,, ,-29.80202,137.95808, 
Nfinity Financials Pty Ltd,http://nfinityfinancials.com,,Banking, ,,,, , , , 
iLoans Australia - iloans.com.au,http://iloans.com.au,,Banking, ,,,, , , , 
"Vice Money, Darwin Mortgages, Home Loans & Finance",http://vicemoney.com.au,,Banking, ,,,, , , , 
Specialist Advice Services,http://specialistadvice.com.au,,Banking, ,,,, ,-38.005419,145.086366, 
FPS Finance & Property Specialists,http://fpsfinance.com.au,,Banking, ,,,, ,-31.863294,115.823748, 
Brett Hunter - Yeti Wise - Mortgage Broker,http://yetiwise.com.au,,Banking, ,,,, ,-35.415702,149.008707, 
Forget Reg,http://forgetreg.com.au,,Banking, ,,,, ,-31.712379,148.667704, 
LOANSDIRECTION,http://loansdirection.com.au,,Banking, ,,,, , , , 
Relianz Home Loans and Financials Pty Ltd,http://relianzhomeloans.com.au,,Banking, ,,,, , , , 
صرافی قاسمی Sarafi Qasemi,http://sarafiqasemi.business.site,,Banking, ,,,, , , , 
Ausure Insurance & Finance (Mt Isa) Pty Ltd,http://ausuremountisa.com.au,,Banking, ,,,, ,-37.841253,144.938292, 
Golden Source Finance,http://goldensourcefinance.com.au,,Banking, ,,,, ,-37.84194,143.730551, 
Fab Loans Pty,http://fabloans.com.au,,Banking, ,,,, ,-34.813045,138.521456, 
Georgco Finance,http://georgcofinance.com.au,,Banking, ,,,, ,-27.471801,153.004077, 
Rosmech Finance,http://rosmechfinance.com.au,,Banking, ,,,, ,-27.471801,153.004077, 
Community Mortgage Brokers,http://communitybrokers.com.au,,Banking, ,,,, , , , 
Total Mortgage and Lending Solutions,http://totalmortgagelending.com.au,,Banking, ,,,, , , , 
Oldham Finance,http://oldhamfinance.com.au,,Banking, ,,,, ,-31.554115,115.633611, 
CURRENCY EXCHANGE ECLIPSE,http://eclipsecurrencyexchange.business.site,,Banking, ,,,, ,-35.493266,138.834389, 
Newy Finance,http://newyfinance.com.au,,Banking, ,,,, ,-32.914151,151.73285, 
STAMPEDE HOME LOANS,http://stampedehomeloans.com.au,,Banking, ,,,, , , , 
4 HomeLoans Bayswater,http://4homeloans.net.au,,Banking, ,,,, ,-37.91983,145.236852, 
RateChaser,http://ratechaser.com.au,,Banking, ,,,, , , , 
Fidelity Mortgage Brokers,http://fidelitymb.com.au,,Banking, ,,,, ,-37.565796,143.840027, 
Aussie Loan Office- Pawn Broker Burwood,http://aussieloanoffice.com.au,,Banking, ,,,, , , , 
Perth Finance Brokers,http://perthfinancebrokers.net.au,,Banking, ,,,, ,-31.960773,115.834088, 
Low Doc Loan Lender,http://lowdocloans.com.au,,Banking, ,,,, , , , 
fight cancer home loans,http://fightcancerhomeloans.com.au,,Banking, ,,,, , , , 
Fintegy Financial,http://fintegy.com.au,,Banking, ,,,, ,-37.985631,145.210948, 
Successful Finance Services,http://successfulfinanceservices.com.au,,Banking, ,,,, ,-25.536724,152.70365, 
Best Truck Insurance,http://besttruckinsurance.com.au,,Banking, ,,,, ,-28.655794,151.933208, 
NepAus Group Pty,http://nepaus.com.au,,Banking, ,,,, ,-37.831937,144.992414, 
Wings Mortgage,http://wingsmortgage.com.au,,Banking, ,,,, ,-37.842013,144.93959, 
KeyPath Financial Planners,http://keypathfinancialgroup.amp.com.au,,Banking, ,,,, , , , 
KJ & P Finance Specialists,http://kjandpartners.com.au,,Banking, ,,,, ,-25.969205,152.986748, 
LoanPage,http://loanpage.com.au,,Banking, ,,,, , , , 
CWUnion Western Australia,http://cwuwa.org,,Banking, ,,,, ,-27.47293,153.015396, 
TFC Home Loans,http://tfchomeloans.com.au,,Banking, ,,,, ,-27.415138,153.050796, 
TV Financial,http://tvfinancial.com.au,,Banking, ,,,, ,-37.985631,145.210948, 
My Car Loan,http://mycarloan.com.au,,Banking, ,,,, ,-37.81012,145.005782, 
Select Advice Finance,http://selectadvicefinance.com.au,,Banking, ,,,, , , , 
Cornerstone Lending Solutions,http://cornerstonelending.com.au,,Banking, ,,,, ,-31.934295,115.859167, 
National Debtor Funding,http://nationaldebtorfunding.com.au,,Banking, ,,,, ,-36.26436,148.48179, 
Penguin Financial,http://penguinfinancial.com.au,,Banking, ,,,, ,-41.116651,146.066172, 
AutomotiveloanWarehouse,http://automotiveloanwarehouse.com.au,,Banking, ,,,, , , , 
Generation Wealth Financial Solutions,http://genwealth.com.au,,Banking, ,,,, , , , 
Affinity Finance Brokers Pty,http://affinityfinance.com.au,,Banking, ,,,, , , , 
Mortgage Plus Financial Solutions,http://mpfs.finance,,Banking, ,,,, , , , 
MR LOAN,http://mrloan.net.au,,Banking, , , , , ,-41.530684,146.673359, 
Eadon Home Loans,http://eadonhomeloans.com.au,,Banking, , , , , ,-27.415138,153.050796, 
Raiyyan Foreign Exchange,http://rayex.com.au,,Banking, , , , , ,-37.814839,144.963618, 
Premium Select Finance,http://premiumselectfinance.com.au,,Banking, , , , , , , , 
Prime Loans,http://primeloansgroup.com,,Banking, , , , , ,-37.879457,145.164186, 
Standard Integrated Lending,http://standardlending.com.au,,Banking, , , , , ,-31.94942,115.857794, 
All Together Finance,http://alltogetherfinance.com.au,,Banking, , , , , ,-35.993511,146.409795, 
Mornington Peninsula Home Loans,http://mphomeloans.com.au,,Banking, , , , , ,-41.408055,147.16605, 
Australian Mortgage Busters,http://australianmortgagebusters.com.au,,Banking, , , , , , , , 
Low Doc Loans Online,http://lowdocloansonline.com.au,,Banking, , , , , ,-37.764331,145.112273, 
Gippsreal,http://gippsreal.net.au,,Banking, , , , , , , , 
McCombe Mortgages and Finance,http://mccombemortgages.com.au,,Banking, , , , , , , , 
Hobsons Bay Community Financial Services,http://hobsonsbaycfs.com.au,,Banking, , , , , ,-37.846083,144.83539, 
Nomadic Finance Pty Ltd,http://nomadicfinance.com.au,,Banking, , , , , ,-37.891427,145.142755, 
CFO South Australia,http://sacfo.com.au,,Banking, , , , , ,-29.467956,135.915347, 
Lynam Home Loans & Mortgage Broker,http://lynamhomeloans.com.au,,Banking, , , , , ,-27.415138,153.050796, 
iFinance Cash Loans,http://ifinancensw.com.au,,Banking, , , , , , , , 
Low Doc Mortgages,http://lowdocmortgages.com.au,,Banking, , , , , ,-37.764331,145.112273, 
Delany Financial,http://delanyfinancial.com,,Banking, , , , , ,-33.833698,151.000911, 
PTR Asset Finance,http://ptrasset.com.au,,Banking, , , , , ,-34.243029,116.144571, 
Loans Usa,http://loansusa.com.au,,Banking, , , , , , , , 
Commercial Loans West Perth WA,http://commercialloansperth.com.au,,Banking, , , , , ,-31.740928,115.759954, 
Anand Kumar Aussie Mortgage & Finance Broker,http://anand-kumar-aussie-broker.business.site,,Banking, , , , , ,-23.342778,150.508988, 
Proper Finance Solutions,http://properfinance.com.au,,Banking, , , , , ,-37.742445,144.997678, 
LoanConsultant.au ABN,http://loanconsultant.com.au,,Banking, , , , , ,-15.73261,128.75167, 
Seven Equity Finance,http://7equity.com.au,,Banking, , , , , ,-33.778575,150.934163, 
Sixty Finance,http://sixtyfinance.com,,Banking, , , , , ,-27.471801,153.004077, 
Aojin Mortgage Pty Ltd,http://aojinmortgage.com.au,,Banking, , , , , , , , 
TOP CLASS FINANCE,http://topclassfinance.com.au,,Banking, , , , , ,-34.877802,138.513105, 
Secure Investments F.I.B. Pty,http://secureinvestments.com.au,,Banking, , , , , , , , 
Aus Fin Loans,http://ausfinloans.com.au,,Banking, , , , , ,-38.007861,145.098171, 
ihomeloans.com.au,http://ihomeloans.com.au,,Banking, , , , , , , , 
Newstate Finance Pty Ltd,http://newstate.com.au,,Banking, , , , , ,-37.891427,145.142755, 
jo attard + co,http://joattard.com.au,,Banking, , , , , ,-21.15698,119.7566, 
Scout Financial Solutions,http://scoutfinancialsolutions.com.au,,Banking, , , , , ,-27.499054,153.046152, 
Success Finance Solutions,http://successfinancesolutions.com.au,,Banking, , , , , ,-32.142557,115.85095, 
BreakFreeProperty.com.au,http://breakfreeproperty.com.au,,Banking, , , , , , , , 
JAVADI PTY,http://javadi.com.au,,Banking, , , , , ,-38.094211,144.368721, 
Connect Capital Solutions,http://connectcs.com.au,,Banking, , , , , ,-35.344719,149.084454, 
XPECTRUM CAPTIAL,http://xpectrumcapital.com.au,,Banking, , , , , , , , 
Weremit,http://weremit.online,,Banking, , , , , , , , 
FEFX,http://fefx.com.au,,Banking, , , , , , , , 
Meridian Business Finance,http://mbf.finance,,Banking, , , , , ,-38.103041,145.356221, 
Farm Machinery Finance,http://farmmachineryfinance.com.au,,Banking, , , , , ,-33.617003,150.749021, 
Home Loan Hack,http://homeloanhack.com.au,,Banking, , , , , ,-37.79885,144.899412, 
Platinum Brokerage Group,http://platinumbrokerage.com.au,,Banking, , , , , ,-27.628856,153.297684, 
Bankruptcy Experts Wangaratta,http://bankruptcyexpertswangaratta.com.au,,Banking, , , , , ,-33.878704,151.224653, 
Sydney Currency Exchange Pty Ltd,http://sydney-currency-exchange.business.site,,Banking, , , , , ,-33.868633,151.209421, 
Mortgage Smashers,http://mortgagesmashers.com,,Banking, , , , , ,-37.842013,144.93959, 
Nova Alliance Bank,http://novaalliancebank.com.au,,Banking, , , , , , , , 
Mortgage Ideas,http://mortgageideas.com.au,,Banking, , , , , ,-37.842013,144.93959, 
Masterforce Financial Services,http://masterforce.com.au,,Banking, , , , , ,-38.14938,144.357135, 
JAYA Finance & Mortgages,http://jayamortgages.com.au,,Banking, , , , , ,-37.995516,145.232786, 
Findyourcarloan.com.au,http://findyourcarloan.com.au,,Banking, , , , , , , , 
Total Home Loan Service,http://totalhomeloanservice.com.au,,Banking, , , , , ,-27.415138,153.050796, 
Winning Wealth Finance,http://winningwealthfinance.com.au,,Banking, , , , , , , , 
Loan Haven,http://loanhaven.com.au,,Banking, , , , , ,-41.162782,146.53805, 
SR Finance - Mortgage Broker & Home Loans,http://srfinance.com.au,,Banking, , , , , ,-37.836527,144.944021, 
Avvora Pty Ltd,http://avvora.com.au,,Banking, , , , , ,-38.094211,144.368721, 
Kidz Expo,http://kidzexpo.com.au,,Banking, , , , , ,-37.853893,145.245349, 
North Brisbane Mortgage Brokers,http://northbrisbanemortgagebrokers.com.au,,Banking, , , , , ,-27.381252,153.050232, 
Brisbane Real,http://brisbanerealestate.com.au,,Banking, , , , , ,-27.469309,153.026164, 
Loanbarn,http://loanbarn.com.au,,Banking, , , , , , , , 
PFM Fleet,http://pfmfleet.com.au,,Banking, , , , , , , , 
Home Loan Savings,http://homeloansavings.com.au,,Banking, , , , , ,-37.79885,144.899412, 
Logical Choice Finance,http://logicalchoicefinance.com.au,,Banking, , , , , , , , 
Esteemed Financial Services,http://esteemedfinancial.com.au,,Banking, , , , , ,-38.14938,144.357135, 
AVB Loans,http://avbloans.com.au,,Banking, , , , , ,-37.879457,145.164186, 
AusCey Exchange,http://ausceyexchange.com.au,,Banking, , , , , , , , 
John Adams Mortgage Broker,http://johnadamsmortgagebroker.com.au,,Banking, , , , , , , , 
Personal Loan Pal,http://personalloanpal.com.au,,Banking, , , , , , , , 
Jodi Parry - Westate Finance,http://westfin.net.au,,Banking, , , , , , , , 
Finance Express Home Loans,http://financeexpresshomeloans.com.au,,Banking, , , , , ,-37.673565,145.016791, 
Hills Home Financing- HHF,http://hillshomefinancing.com.au,,Banking, , , , , ,-31.546689,138.588882, 
Quest Insurance and Financial Solutions,http://questinsurance.com.au,,Banking, , , , , ,-38.156303,144.350663, 
RemitSewa,http://remitsewa.com.au,,Banking, , , , , , , , 
Mike Mackenzie Mortgage Broker In Perth,http://mortgagebrokerinperth.com.au,,Banking, , , , , ,-26.655096,153.092998, 
Dallas Express Foto,http://dallasexpressfoto.com,,Banking, , , , , ,-37.670851,144.934103, 
My Property & Finance,http://mypropertyandfinance.com.au,,Banking, , , , , ,-17.396451,124.113404, 
Colonial State,http://colonialstatecapital.com.au,,Banking, , , , , ,-37.014348,143.480452, 
One Stop Loans WA,http://onestoploanswa.com.au,,Banking, , , , , ,-38.369535,142.469325, 
Oz Cash Loans,http://ozcashloans.com.au,,Banking, , , , , ,-34.928098,138.606343, 
Savvy Chattel + Mortgage,http://savvychattelmortgage.com.au,,Banking, , , , , , , , 
Right Choice Mortgages and Finance,http://rcmf.com.au,,Banking, , , , , ,-38.010116,145.103127, 
LendingTree Group,http://lendingtree.net.au,,Banking, , , , , ,-38.148594,144.36658, 
Market Linked Loans,http://marketlinked.com.au,,Banking, , , , , ,-12.462528,130.841079, 
Flatmart,http://flatmart.com.au,,Banking, , , , , , , , 
Rainmaker Financial Group,http://rainmakerfinancial.com.au,,Banking, , , , , ,-38.149079,144.357381, 
Echelon Finance,http://echelon.cc,,Banking, , , , , ,-35.25946,149.12883, 
Balmain Brisbane,http://brisbane.balmain.com.au,,Banking, , , , , ,-27.469309,153.026164, 
Harbourside Mortgage and Finance Brokers,http://harboursidemfb.com.au,,Banking, , , , , ,-38.010116,145.103127, 
Tailormade Finance,http://tailormade.finance,,Banking, , , , , ,-27.471801,153.004077, 
Apply For Payday Loan,http://applyforpaydayloan.com.au,,Banking, , , , , ,-32.522003,115.715124, 
Hocknell Home Loans,http://hocknellhomeloans.com.au,,Banking, , , , , ,-27.415138,153.050796, 
Faraday West Finance,http://faradaywestfinance.com.au,,Banking, , , , , ,-37.05,144.3, 
HP Finance Solutions,http://hpfinancesolutions.com,,Banking, , , , , ,-35.275233,149.127706, 
Evolve Super Solutions Pty,http://evolveaa.com.au,,Banking, , , , , , , , 
Home Loan Studio,http://homeloanstudio.com.au,,Banking, , , , , ,-27.415138,153.050796, 
Small Business Loans Hub Melbourne,http://smallbusinessloanshub.com.au,,Banking, , , , , , , , 
Emirates Mutual Funds Exchange Pty Ltd,http://emfxe.com.au,,Banking, , , , , , , , 
Advance Cash Loans,http://advancecashloans.com.au,,Banking, , , , , ,-33.869653,151.199462, 
Peak Finance Group,http://peakfinancegroup.com.au,,Banking, , , , , ,-21.657052,149.83729, 
Buddha Remit,http://buddharemit.com.au,,Banking, , , , , ,-33.403155,151.406339, 
New Start Finance Group,http://newstartgroup.com.au,,Banking, , , , , ,-33,146, 
sbsfinance.com.au,http://sbsfinance.com.au,,Banking, , , , , , , , 
Mahanain,http://mahanain.com,,Banking, , , , , , , , 
Illawarra Capital Finance,http://illawarracapitalfinance.searchpages.com.au,,Banking, , , , , ,-34.541818,150.860021, 
Home Saver Home Loans,http://homesaverhomeloans.com.au,,Banking, , , , , ,-27.415138,153.050796, 
Afirm Financial,http://afirm.com.au,,Banking, , , , , ,-37.985631,145.210948, 
Melcorp Finance,http://melcorpfinance.com.au,,Banking, , , , , ,-37.807349,144.962581, 
Echuca Moama Finance,http://echucamoamafinance.com.au,,Banking, , , , , ,-36.107768,144.762281, 
HOME FINANCE CHOICE,http://homefinancechoice.com.au,,Banking, , , , , ,-35.354157,149.089783, 
Glynn Finance,http://glynnfinance.com.au,,Banking, , , , , , , , 
Equal Access Funding,http://eafunding.com.au,,Banking, , , , , ,-27.458726,153.106978, 
NAB Margin Lending,http://nabmarginlending.com.au,,Banking, , , , , , , , 
Laurent Poirier Financial Services,http://lpfs.com.au,,Banking, , , , , , , , 
Create Build Protect Financial Services,http://cbpfinance.com.au,,Banking, , , , , , , , 
NQ Finance Group,http://nqfinancegroup.com.au,,Banking, , , , , ,-19.322604,146.764202, 
NKP Brokers,http://nkpbrokers.com.au,,Banking, , , , , , , , 
Financial Solutions by Design,http://fsbd.com.au,,Banking, , , , , ,-27.499054,153.046152, 
Home Loans & More,http://homeloansandmore.com.au,,Banking, , , , , ,-37.953806,145.152201, 
Viking Mortgages Pty Ltd,http://vikingmortgages.com.au,,Banking, , , , , ,-35.404778,149.094621, 
Nectar Mortgages No,http://nectarmortgages.com.au,,Banking, , , , , ,-38.006588,145.086915, 
Platinum Mortgage Brokers,http://platinummortgagebrokers.com.au,,Banking, , , , , ,-27.628856,153.297684, 
fruition finance,http://fruitionfinance.com.au,,Banking, , , , , ,-37.789569,144.942964, 
Australian Real Estate Home Loans Pty Ltd,http://arehl.com.au,,Banking, , , , , ,-37.835231,145.06082, 
RONNAZ Financial Solutions Pty Ltd,http://ronnaz.com.au,,Banking, , , , , , , , 
Easy as Mortgages,http://easyasmortgages.com.au,,Banking, , , , , , , , 
Express Finance Options,http://expressfinanceoptions.com.au,,Banking, , , , , , , , 
My Cosmetic Finance,http://mycosmetic.finance,,Banking, , , , , ,-17.396451,124.113404, 
MyBizz Solutions Group,http://mybizzsolutions.com.au,,Banking, , , , , , , , 
Eastwood Financial & Investment Services Pty Ltd.,http://eastwood.amp.com.au,,Banking, , , , , ,-33.788642,151.083479, 
Jai Kerr - Mortgage Specialist,http://kerr-financial-solutions.business.site,,Banking, , , , , ,-38.042647,145.345972, 
You Can Make Money Online,http://youcanmakemoneyonline.com.au,,Banking, , , , , , , , 
Transfer Money To Sri Lanka,http://transfermoneytosrilanka.com.au,,Banking, , , , , ,-27.395606,153.102915, 
Yarra Ranges Finance Brokers,http://yarrarangesfinancebrokers.com,,Banking, , , , , ,-37.75405,145.642598, 
Cliff and Moss Finance,http://cliffandmoss.com.au,,Banking, , , , , ,-16.470041,145.372842, 
Freedom Mortgage Solutions,http://freedommortgagesolutions.com.au,,Banking, , , , , ,-37.812365,145.011703, 
Connect Finance Services,http://connectfs.com.au,,Banking, , , , , ,-25.536724,152.70365, 
You Business Loans,http://youbusinessloans.com.au,,Banking, , , , , , , , 
Australian Credit Holdings Pty,http://acaloans.com.au,,Banking, , , , , , , , 
BIZZLOANS.COM.AU,http://bizzloans.com.au,,Banking, , , , , , , , 
Wise Choice Mortgage & Finance,http://wisechoicemortgage.com.au,,Banking, , , , , ,-38.373157,145.125503, 
Financepartner.com.au,http://financepartner.com.au,,Banking, , , , , , , , 
Aussie Commercial Loans,http://aussiecommercialloans.com.au,,Banking, , , , , ,-27.415138,153.050796, 
North Sydney Broker,http://northsydneybroker.com,,Banking, , , , , ,-33.836767,151.2077, 
THE RATE CHALLENGER Proudly,http://theratechallenger.com,,Banking, , , , , , , , 
Auscorp Finance,http://auscorpfinance.com.au,,Banking, , , , , ,-27.471801,153.004077, 
Ask Alan Heath,http://askalanheath.com.au,,Banking, , , , , , , , 
Damien Keily Finance,http://damienkeily.com.au,,Banking, , , , , , , , 
Ambition Financial Group,http://ambitionfinancial.com.au,,Banking, , , , , , , , 
Find A Better Rate Home Loans,http://findabetterrate.com.au,,Banking, , , , , , , , 
Finance & Mortgage,http://financemortgage.com.au,,Banking, , , , , ,-27.471801,153.004077, 
Rich River Home Loans,http://richriverhomeloans.com.au,,Banking, , , , , , , , 
Lalor Finance,http://casablancafinance.com.au,,Banking, , , , , ,-37.660402,144.99727, 
@RealEstateCo,http://realestateco.net.au,,Banking, , , , , , , , 
Mortgage Fair,http://mortgagefair.com.au,,Banking, , , , , ,-37.842013,144.93959, 
Albany Creek Home Loans,http://albanycreekhomeloans.com.au,,Banking, , , , , ,-27.346812,152.969262, 
Virtual Loans Assistant,http://virtualloansassistant.com.au,,Banking, , , , , , , , 
Commercial Car Loans,http://commercialcarloans.com.au,,Banking, , , , , ,-37.879457,145.164186, 
Coast2coast Car Brokers,http://coast2coastcars.com.au,,Banking, , , , , ,-34.393378,150.86992, 
Cash On Your Mobile,http://cashonyourmobile.net.au,,Banking, , , , , ,-28.213498,152.033246, 
Capital One Mortgage Solutions,http://capitalonemortgage.com.au,,Banking, , , , , ,-35.470057,148.954507, 
Boat Loans Finance,http://boatloansfinance.com.au,,Banking, , , , , ,-37.673565,145.016791, 
Empower Finance Group,http://empowerfinancegroup.com.au,,Banking, , , , , , , , 
RIA Money Transfer St Marys - Jayam Supermarket,http://ria-money-transfer-st-marys-jayam-supermarket.business.site,,Banking, , , , , ,-33.814863,151.002718, 
Australian Finance Aggregation,http://financeaggregation.com.au,,Banking, , , , , ,-32.732828,152.03024, 
Complete Loans,http://completehomeloanssydney.com.au,,Banking, , , , , ,-37.848965,145.232727, 
RDN Mortgages Pty Ltd,http://rdnmortgages.com.au,,Banking, , , , , , , , 
Element Finance Fremantle,http://elementfinance.com.au,,Banking, , , , , ,-27.471801,153.004077, 
BTO Finance,http://btofinance.com.au,,Banking, , , , , ,-27.471801,153.004077, 
Noble Loans,http://nobleloans.com.au,,Banking, , , , , ,-37.969411,145.176712, 
Lend Power,http://lendpower.com.au,,Banking, , , , , ,-33.832084,151.011604, 
sydney Mortgage Practice,http://sydneymortgagepractice.com.au,,Banking, , , , , ,-33.868633,151.209421, 
n2n Finance Solutions,http://n2nfinance.com.au,,Banking, , , , , , , , 
Flexi Plus Finance,http://flexiplusfinance.com.au,,Banking, , , , , , , , 
Bliss Financial,http://blissfinancial.com.au,,Banking, , , , , ,-28.043342,153.395062, 
Performance Finance Solutions,http://performancefinancesolutions.com,,Banking, , , , , , , , 
Compari Finance Solutions Pty Ltd,http://compari.com.au,,Banking, , , , , , , , 
Smarter home loan,http://smarterhomeloan.com.au,,Banking, , , , , ,-27.415138,153.050796, 
eLending Finance,http://elendingfinance.com.au,,Banking, , , , , ,-27.471801,153.004077, 
Plexus Money,http://pmwa.com.au,,Banking, , , , , , , , 
LadyBird HomeLoans,http://ladybirdhomeloans.com.au,,Banking, , , , , ,-37.91983,145.236852, 
KNS Finance,http://knsfinance.com.au,,Banking, , , , , , , , 
Swiss Home Loans,http://swisshl.com.au,,Banking, , , , , ,-27.415138,153.050796, 
McMahon Financial BROKING ASSOCIATES,http://mfs.id.au,,Banking, , , , , , , , 
My Mortgage Mentor,http://mymortgagementor.solutions,,Banking, , , , , ,-37.842013,144.93959, 
Mortage Finance Options,http://mortgagefo.com.au,,Banking, , , , , , , , 
Super Loans Pty Ltd,http://superloans.com.au,,Banking, , , , , , , , 
Citywide Finance & Leasing,http://citywidefinance.com.au,,Banking, , , , , ,-37.891427,145.142755, 
Ming Finance,http://mingfinance.com.au,,Banking, , , , , ,-29.195687,115.447144, 
SIlverline Finance Solutions Pty Ltd,http://slfinance.com.au,,Banking, , , , , , , , 
Rampfs,http://rampfs.com.au,,Banking, , , , , , , , 
Motivated Finance,http://motivatedfinance.com.au,,Banking, , , , , ,-27.471801,153.004077, 
Spencer Fuller & Associates,http://spencerfuller.com.au,,Banking, , , , , , , , 
Trimm Bookkeeping,http://trimmbookkeeping.com.au,,Banking, , , , , ,-38.149375,144.358892, 
Negoti8 Finance,http://negoti8finance.com.au,,Banking, , , , , ,-27.471801,153.004077, 
Wanny Finance,http://wannyfinance.com.au,,Banking, , , , , ,-27.471801,153.004077, 
RLR Finance Partners,http://rlrfinance.com.au,,Banking, , , , , , , , 
